{"type":"FeatureCollection","features":[{"type":"Feature","properties":{"id":"2800100","name":"Amparo de São Francisco"},"geometry":{"type":"Polygon","coordinates":[[[-36.926,-10.128],[-36.924,-10.129],[-36.921,-10.128],[-36.918,-10.132],[-36.918,-10.132],[-36.911,-10.138],[-36.887,-10.143],[-36.88,-10.145],[-36.903,-10.173],[-36.943,-10.227],[-36.94,-10.162],[-36.94,-10.158],[-36.934,-10.121],[-36.926,-10.128]]]}},{"type":"Feature","properties":{"id":"2800209","name":"Aquidabã"},"geometry":{"type":"Polygon","coordinates":[[[-37.057,-10.181],[-37.017,-10.191],[-36.994,-10.177],[-36.983,-10.195],[-36.971,-10.204],[-36.963,-10.23],[-36.961,-10.235],[-36.958,-10.234],[-36.943,-10.227],[-36.929,-10.222],[-36.952,-10.266],[-36.933,-10.276],[-36.937,-10.278],[-36.956,-10.29],[-37.009,-10.302],[-37.012,-10.311],[-37.012,-10.312],[-37.012,-10.312],[-37.018,-10.332],[-37.018,-10.332],[-37.026,-10.33],[-37.029,-10.326],[-37.034,-10.329],[-37.039,-10.327],[-37.052,-10.34],[-37.062,-10.329],[-37.077,-10.339],[-37.078,-10.346],[-37.085,-10.347],[-37.09,-10.358],[-37.099,-10.36],[-37.097,-10.362],[-37.102,-10.369],[-37.109,-10.369],[-37.112,-10.373],[-37.119,-10.368],[-37.125,-10.375],[-37.128,-10.374],[-37.126,-10.372],[-37.128,-10.372],[-37.135,-10.359],[-37.14,-10.36],[-37.14,-10.363],[-37.144,-10.362],[-37.144,-10.367],[-37.147,-10.366],[-37.146,-10.362],[-37.153,-10.367],[-37.153,-10.364],[-37.158,-10.366],[-37.159,-10.362],[-37.153,-10.358],[-37.157,-10.35],[-37.153,-10.347],[-37.163,-10.34],[-37.162,-10.334],[-37.165,-10.332],[-37.149,-10.322],[-37.149,-10.315],[-37.155,-10.307],[-37.147,-10.303],[-37.149,-10.293],[-37.15,-10.288],[-37.147,-10.288],[-37.139,-10.28],[-37.138,-10.275],[-37.138,-10.262],[-37.142,-10.256],[-37.141,-10.246],[-37.149,-10.241],[-37.151,-10.236],[-37.15,-10.222],[-37.143,-10.204],[-37.136,-10.2],[-37.136,-10.2],[-37.137,-10.193],[-37.154,-10.187],[-37.152,-10.165],[-37.152,-10.165],[-37.058,-10.181],[-37.057,-10.181],[-37.057,-10.181]]]}},{"type":"Feature","properties":{"id":"2800308","name":"Aracaju"},"geometry":{"type":"Polygon","coordinates":[[[-37.074,-10.864],[-37.068,-10.877],[-37.057,-10.865],[-37.044,-10.865],[-37.035,-10.868],[-37.039,-10.884],[-37.044,-10.894],[-37.043,-10.915],[-37.042,-10.939],[-37.036,-10.956],[-37.026,-10.964],[-37.056,-10.998],[-37.131,-11.105],[-37.154,-11.152],[-37.157,-11.157],[-37.163,-11.152],[-37.167,-11.146],[-37.162,-11.133],[-37.162,-11.117],[-37.166,-11.105],[-37.163,-11.092],[-37.172,-11.083],[-37.174,-11.077],[-37.165,-11.066],[-37.156,-11.054],[-37.144,-11.058],[-37.138,-11.063],[-37.102,-10.969],[-37.099,-10.962],[-37.091,-10.941],[-37.1,-10.919],[-37.107,-10.904],[-37.102,-10.896],[-37.106,-10.89],[-37.104,-10.886],[-37.097,-10.885],[-37.104,-10.877],[-37.097,-10.875],[-37.083,-10.863],[-37.074,-10.864]]]}},{"type":"Feature","properties":{"id":"2800407","name":"Arauá"},"geometry":{"type":"Polygon","coordinates":[[[-37.554,-11.183],[-37.55,-11.185],[-37.547,-11.182],[-37.543,-11.188],[-37.536,-11.188],[-37.532,-11.197],[-37.538,-11.219],[-37.533,-11.227],[-37.525,-11.227],[-37.525,-11.232],[-37.53,-11.237],[-37.529,-11.242],[-37.524,-11.242],[-37.526,-11.254],[-37.523,-11.258],[-37.515,-11.265],[-37.514,-11.272],[-37.507,-11.274],[-37.516,-11.289],[-37.521,-11.291],[-37.524,-11.293],[-37.523,-11.3],[-37.53,-11.305],[-37.549,-11.305],[-37.572,-11.323],[-37.581,-11.326],[-37.59,-11.326],[-37.601,-11.343],[-37.604,-11.342],[-37.607,-11.339],[-37.609,-11.338],[-37.618,-11.329],[-37.663,-11.29],[-37.663,-11.282],[-37.663,-11.254],[-37.665,-11.246],[-37.67,-11.244],[-37.672,-11.238],[-37.66,-11.219],[-37.651,-11.22],[-37.642,-11.217],[-37.635,-11.22],[-37.615,-11.215],[-37.608,-11.217],[-37.597,-11.214],[-37.596,-11.203],[-37.587,-11.196],[-37.577,-11.189],[-37.576,-11.188],[-37.575,-11.187],[-37.547,-11.166],[-37.55,-11.173],[-37.556,-11.178],[-37.554,-11.183]]]}},{"type":"Feature","properties":{"id":"2800506","name":"Areia Branca"},"geometry":{"type":"Polygon","coordinates":[[[-37.319,-10.738],[-37.316,-10.74],[-37.299,-10.73],[-37.293,-10.722],[-37.283,-10.721],[-37.28,-10.726],[-37.282,-10.729],[-37.282,-10.738],[-37.272,-10.747],[-37.273,-10.752],[-37.245,-10.778],[-37.273,-10.798],[-37.283,-10.806],[-37.317,-10.831],[-37.318,-10.832],[-37.318,-10.832],[-37.318,-10.834],[-37.329,-10.833],[-37.337,-10.839],[-37.341,-10.848],[-37.351,-10.849],[-37.363,-10.847],[-37.375,-10.852],[-37.403,-10.844],[-37.407,-10.832],[-37.404,-10.826],[-37.403,-10.824],[-37.396,-10.809],[-37.392,-10.803],[-37.377,-10.771],[-37.376,-10.768],[-37.363,-10.742],[-37.363,-10.741],[-37.353,-10.733],[-37.345,-10.727],[-37.336,-10.721],[-37.332,-10.726],[-37.318,-10.731],[-37.315,-10.731],[-37.312,-10.733],[-37.315,-10.734],[-37.319,-10.738]]]}},{"type":"Feature","properties":{"id":"2800605","name":"Barra dos Coqueiros"},"geometry":{"type":"Polygon","coordinates":[[[-36.872,-10.741],[-36.869,-10.744],[-36.861,-10.742],[-36.854,-10.743],[-36.913,-10.805],[-36.933,-10.826],[-36.936,-10.83],[-36.957,-10.855],[-36.991,-10.9],[-37.012,-10.927],[-37.02,-10.94],[-37.022,-10.943],[-37.026,-10.951],[-37.026,-10.964],[-37.036,-10.956],[-37.042,-10.939],[-37.043,-10.915],[-37.044,-10.894],[-37.039,-10.884],[-37.028,-10.885],[-37.024,-10.877],[-37.016,-10.875],[-37.015,-10.864],[-37.009,-10.864],[-37.006,-10.859],[-36.998,-10.86],[-36.995,-10.857],[-36.997,-10.853],[-36.995,-10.847],[-36.989,-10.852],[-36.983,-10.849],[-36.981,-10.843],[-36.988,-10.836],[-36.984,-10.832],[-36.982,-10.835],[-36.979,-10.832],[-36.969,-10.833],[-36.965,-10.819],[-36.96,-10.817],[-36.96,-10.809],[-36.957,-10.809],[-36.947,-10.798],[-36.939,-10.796],[-36.937,-10.787],[-36.929,-10.79],[-36.927,-10.787],[-36.926,-10.788],[-36.899,-10.772],[-36.884,-10.747],[-36.876,-10.739],[-36.872,-10.741]]]}},{"type":"Feature","properties":{"id":"2800670","name":"Boquim"},"geometry":{"type":"Polygon","coordinates":[[[-37.528,-11.053],[-37.539,-11.096],[-37.553,-11.141],[-37.548,-11.142],[-37.541,-11.143],[-37.546,-11.148],[-37.544,-11.154],[-37.555,-11.154],[-37.547,-11.166],[-37.575,-11.187],[-37.576,-11.188],[-37.577,-11.189],[-37.587,-11.196],[-37.596,-11.203],[-37.606,-11.2],[-37.606,-11.2],[-37.609,-11.202],[-37.64,-11.198],[-37.641,-11.198],[-37.669,-11.183],[-37.67,-11.183],[-37.679,-11.19],[-37.683,-11.18],[-37.691,-11.171],[-37.705,-11.192],[-37.701,-11.184],[-37.702,-11.181],[-37.707,-11.175],[-37.695,-11.166],[-37.672,-11.148],[-37.672,-11.148],[-37.646,-11.126],[-37.649,-11.109],[-37.634,-11.082],[-37.624,-11.088],[-37.618,-11.083],[-37.612,-11.078],[-37.616,-11.072],[-37.615,-11.07],[-37.622,-11.067],[-37.622,-11.067],[-37.565,-11.04],[-37.57,-11.034],[-37.568,-11.025],[-37.549,-11.01],[-37.547,-11.008],[-37.531,-10.996],[-37.528,-11.053]]]}},{"type":"Feature","properties":{"id":"2800704","name":"Brejo Grande"},"geometry":{"type":"Polygon","coordinates":[[[-36.4,-10.511],[-36.4,-10.519],[-36.406,-10.517],[-36.435,-10.521],[-36.497,-10.538],[-36.484,-10.528],[-36.499,-10.513],[-36.585,-10.499],[-36.557,-10.483],[-36.527,-10.465],[-36.513,-10.446],[-36.497,-10.441],[-36.484,-10.437],[-36.489,-10.424],[-36.487,-10.422],[-36.487,-10.422],[-36.463,-10.406],[-36.457,-10.407],[-36.443,-10.418],[-36.438,-10.418],[-36.43,-10.425],[-36.417,-10.454],[-36.405,-10.481],[-36.405,-10.482],[-36.394,-10.5],[-36.394,-10.504],[-36.4,-10.511]]]}},{"type":"Feature","properties":{"id":"2801009","name":"Campo do Brito"},"geometry":{"type":"Polygon","coordinates":[[[-37.561,-10.691],[-37.548,-10.697],[-37.548,-10.697],[-37.536,-10.694],[-37.532,-10.688],[-37.527,-10.688],[-37.5,-10.688],[-37.5,-10.693],[-37.496,-10.695],[-37.481,-10.7],[-37.474,-10.71],[-37.463,-10.713],[-37.458,-10.721],[-37.452,-10.738],[-37.45,-10.75],[-37.451,-10.763],[-37.449,-10.766],[-37.452,-10.77],[-37.442,-10.776],[-37.441,-10.783],[-37.443,-10.785],[-37.446,-10.782],[-37.449,-10.787],[-37.443,-10.802],[-37.431,-10.831],[-37.427,-10.83],[-37.424,-10.829],[-37.403,-10.824],[-37.404,-10.826],[-37.442,-10.867],[-37.456,-10.882],[-37.459,-10.879],[-37.457,-10.872],[-37.471,-10.853],[-37.478,-10.859],[-37.483,-10.858],[-37.481,-10.841],[-37.488,-10.838],[-37.488,-10.833],[-37.494,-10.83],[-37.498,-10.833],[-37.507,-10.824],[-37.512,-10.826],[-37.524,-10.819],[-37.52,-10.812],[-37.524,-10.809],[-37.524,-10.809],[-37.517,-10.804],[-37.516,-10.798],[-37.521,-10.8],[-37.52,-10.792],[-37.523,-10.794],[-37.53,-10.79],[-37.528,-10.784],[-37.535,-10.782],[-37.536,-10.784],[-37.543,-10.78],[-37.55,-10.783],[-37.558,-10.778],[-37.561,-10.775],[-37.566,-10.767],[-37.563,-10.761],[-37.56,-10.757],[-37.564,-10.751],[-37.57,-10.744],[-37.587,-10.721],[-37.586,-10.712],[-37.59,-10.701],[-37.595,-10.696],[-37.585,-10.68],[-37.577,-10.685],[-37.574,-10.69],[-37.561,-10.691]]]}},{"type":"Feature","properties":{"id":"2801108","name":"Canhoba"},"geometry":{"type":"Polygon","coordinates":[[[-36.93,-10.105],[-36.921,-10.128],[-36.924,-10.129],[-36.926,-10.128],[-36.934,-10.121],[-36.94,-10.158],[-36.94,-10.162],[-36.943,-10.227],[-36.958,-10.234],[-36.961,-10.235],[-36.963,-10.23],[-36.971,-10.204],[-36.983,-10.195],[-36.994,-10.177],[-37.017,-10.191],[-37.057,-10.181],[-37.057,-10.181],[-37.058,-10.181],[-37.152,-10.165],[-37.146,-10.163],[-37.09,-10.144],[-37.065,-10.136],[-37.055,-10.127],[-37.047,-10.124],[-37.044,-10.133],[-37.04,-10.132],[-37.04,-10.137],[-37.032,-10.132],[-37.028,-10.121],[-37.016,-10.11],[-37.008,-10.104],[-36.99,-10.083],[-36.985,-10.081],[-36.954,-10.071],[-36.952,-10.074],[-36.95,-10.077],[-36.947,-10.086],[-36.93,-10.105]]]}},{"type":"Feature","properties":{"id":"2801207","name":"Canindé de São Francisco"},"geometry":{"type":"Polygon","coordinates":[[[-37.956,-9.534],[-37.917,-9.549],[-37.894,-9.539],[-37.886,-9.55],[-37.842,-9.579],[-37.837,-9.583],[-37.833,-9.594],[-37.823,-9.591],[-37.818,-9.592],[-37.807,-9.61],[-37.793,-9.62],[-37.787,-9.633],[-37.785,-9.638],[-37.778,-9.638],[-37.747,-9.625],[-37.737,-9.627],[-37.711,-9.631],[-37.687,-9.644],[-37.68,-9.648],[-37.671,-9.656],[-37.666,-9.666],[-37.749,-9.684],[-37.781,-9.692],[-37.782,-9.692],[-37.821,-9.701],[-37.823,-9.701],[-37.831,-9.703],[-37.834,-9.71],[-37.843,-9.748],[-37.841,-9.762],[-37.854,-9.783],[-37.854,-9.784],[-37.854,-9.796],[-37.859,-9.801],[-37.869,-9.841],[-37.864,-9.847],[-37.868,-9.854],[-37.869,-9.866],[-37.868,-9.898],[-37.882,-9.91],[-37.887,-9.913],[-37.897,-9.913],[-37.9,-9.92],[-37.92,-9.935],[-37.925,-9.943],[-37.926,-9.953],[-37.936,-9.966],[-37.949,-9.971],[-37.957,-9.971],[-37.968,-9.962],[-37.988,-9.921],[-37.997,-9.916],[-37.997,-9.91],[-37.991,-9.902],[-37.985,-9.889],[-37.982,-9.868],[-37.976,-9.86],[-37.973,-9.848],[-37.976,-9.842],[-37.974,-9.83],[-37.966,-9.819],[-37.966,-9.816],[-37.973,-9.814],[-37.997,-9.803],[-38.017,-9.787],[-38.02,-9.778],[-38.028,-9.776],[-38.031,-9.771],[-38.029,-9.765],[-38.033,-9.76],[-38.039,-9.734],[-38.039,-9.733],[-38.043,-9.712],[-38.041,-9.691],[-38.04,-9.686],[-38.025,-9.682],[-38.022,-9.666],[-38.007,-9.651],[-37.997,-9.65],[-37.993,-9.656],[-37.99,-9.656],[-37.99,-9.65],[-37.988,-9.647],[-37.99,-9.641],[-38.008,-9.636],[-38.008,-9.631],[-38.016,-9.629],[-38.018,-9.623],[-38.035,-9.612],[-38.04,-9.602],[-38.039,-9.583],[-38.036,-9.581],[-38.041,-9.576],[-38.04,-9.572],[-38.031,-9.568],[-38.03,-9.574],[-38.026,-9.574],[-38.02,-9.561],[-38.018,-9.552],[-38.023,-9.549],[-38.022,-9.541],[-38.014,-9.535],[-38.013,-9.528],[-38.003,-9.515],[-37.989,-9.527],[-37.956,-9.534]]]}},{"type":"Feature","properties":{"id":"2801306","name":"Capela"},"geometry":{"type":"Polygon","coordinates":[[[-37.029,-10.326],[-37.026,-10.33],[-37.018,-10.332],[-37.018,-10.332],[-37.006,-10.326],[-37.0,-10.328],[-37.0,-10.352],[-36.997,-10.354],[-36.984,-10.372],[-36.982,-10.37],[-36.978,-10.373],[-36.986,-10.385],[-36.981,-10.395],[-36.983,-10.403],[-36.974,-10.418],[-36.967,-10.425],[-36.964,-10.438],[-36.962,-10.442],[-36.953,-10.443],[-36.943,-10.445],[-36.937,-10.451],[-36.935,-10.45],[-36.945,-10.485],[-36.956,-10.523],[-36.977,-10.53],[-36.976,-10.538],[-36.976,-10.538],[-36.976,-10.543],[-36.992,-10.589],[-37.011,-10.64],[-37.036,-10.625],[-37.073,-10.615],[-37.067,-10.608],[-37.066,-10.598],[-37.068,-10.591],[-37.077,-10.589],[-37.075,-10.577],[-37.07,-10.573],[-37.074,-10.561],[-37.068,-10.529],[-37.07,-10.529],[-37.081,-10.527],[-37.107,-10.531],[-37.104,-10.528],[-37.103,-10.51],[-37.113,-10.492],[-37.115,-10.482],[-37.123,-10.476],[-37.138,-10.47],[-37.138,-10.469],[-37.135,-10.452],[-37.118,-10.441],[-37.113,-10.433],[-37.112,-10.425],[-37.111,-10.414],[-37.114,-10.412],[-37.118,-10.41],[-37.11,-10.405],[-37.113,-10.401],[-37.107,-10.4],[-37.118,-10.4],[-37.118,-10.388],[-37.132,-10.384],[-37.125,-10.375],[-37.119,-10.368],[-37.112,-10.373],[-37.109,-10.369],[-37.102,-10.369],[-37.097,-10.362],[-37.099,-10.36],[-37.09,-10.358],[-37.085,-10.347],[-37.078,-10.346],[-37.077,-10.339],[-37.062,-10.329],[-37.052,-10.34],[-37.039,-10.327],[-37.034,-10.329],[-37.029,-10.326]]]}},{"type":"Feature","properties":{"id":"2801405","name":"Carira"},"geometry":{"type":"Polygon","coordinates":[[[-37.7,-10.193],[-37.701,-10.201],[-37.695,-10.207],[-37.689,-10.204],[-37.681,-10.208],[-37.681,-10.208],[-37.673,-10.206],[-37.653,-10.218],[-37.648,-10.225],[-37.623,-10.244],[-37.616,-10.24],[-37.613,-10.249],[-37.606,-10.24],[-37.6,-10.243],[-37.601,-10.247],[-37.596,-10.25],[-37.611,-10.277],[-37.589,-10.312],[-37.589,-10.312],[-37.578,-10.33],[-37.575,-10.371],[-37.622,-10.41],[-37.627,-10.415],[-37.681,-10.48],[-37.724,-10.509],[-37.725,-10.509],[-37.731,-10.516],[-37.773,-10.506],[-37.779,-10.511],[-37.797,-10.509],[-37.809,-10.513],[-37.815,-10.517],[-37.817,-10.513],[-37.813,-10.508],[-37.817,-10.504],[-37.821,-10.484],[-37.849,-10.443],[-37.859,-10.43],[-37.851,-10.416],[-37.853,-10.406],[-37.837,-10.401],[-37.842,-10.398],[-37.84,-10.389],[-37.833,-10.385],[-37.839,-10.379],[-37.834,-10.38],[-37.83,-10.375],[-37.824,-10.378],[-37.822,-10.372],[-37.813,-10.366],[-37.807,-10.366],[-37.787,-10.354],[-37.785,-10.348],[-37.776,-10.344],[-37.762,-10.344],[-37.743,-10.337],[-37.735,-10.332],[-37.741,-10.318],[-37.741,-10.317],[-37.765,-10.196],[-37.755,-10.2],[-37.717,-10.187],[-37.7,-10.193]]]}},{"type":"Feature","properties":{"id":"2801504","name":"Carmópolis"},"geometry":{"type":"Polygon","coordinates":[[[-36.909,-10.678],[-36.9,-10.693],[-36.903,-10.692],[-36.905,-10.697],[-36.912,-10.7],[-36.912,-10.705],[-36.915,-10.7],[-36.919,-10.701],[-36.917,-10.686],[-36.943,-10.685],[-36.982,-10.683],[-36.988,-10.681],[-37.011,-10.675],[-37.011,-10.64],[-36.992,-10.631],[-36.981,-10.631],[-36.969,-10.631],[-36.97,-10.637],[-36.961,-10.65],[-36.934,-10.654],[-36.93,-10.67],[-36.923,-10.676],[-36.909,-10.678]]]}},{"type":"Feature","properties":{"id":"2801603","name":"Cedro de São João"},"geometry":{"type":"Polygon","coordinates":[[[-36.856,-10.278],[-36.875,-10.297],[-36.881,-10.296],[-36.886,-10.3],[-36.902,-10.324],[-36.932,-10.308],[-36.936,-10.306],[-36.933,-10.276],[-36.952,-10.266],[-36.929,-10.222],[-36.899,-10.226],[-36.888,-10.226],[-36.867,-10.228],[-36.851,-10.238],[-36.848,-10.24],[-36.844,-10.261],[-36.856,-10.278]]]}},{"type":"Feature","properties":{"id":"2801702","name":"Cristinápolis"},"geometry":{"type":"Polygon","coordinates":[[[-37.72,-11.407],[-37.704,-11.416],[-37.704,-11.417],[-37.702,-11.421],[-37.693,-11.425],[-37.691,-11.432],[-37.686,-11.434],[-37.682,-11.444],[-37.677,-11.446],[-37.672,-11.457],[-37.677,-11.473],[-37.66,-11.485],[-37.653,-11.479],[-37.652,-11.482],[-37.646,-11.486],[-37.645,-11.499],[-37.648,-11.5],[-37.646,-11.503],[-37.637,-11.501],[-37.636,-11.512],[-37.632,-11.518],[-37.637,-11.518],[-37.644,-11.524],[-37.651,-11.518],[-37.653,-11.529],[-37.657,-11.533],[-37.665,-11.533],[-37.662,-11.543],[-37.672,-11.559],[-37.67,-11.564],[-37.673,-11.568],[-37.684,-11.562],[-37.688,-11.566],[-37.7,-11.562],[-37.695,-11.549],[-37.696,-11.545],[-37.702,-11.54],[-37.712,-11.552],[-37.719,-11.55],[-37.728,-11.552],[-37.731,-11.537],[-37.748,-11.538],[-37.759,-11.525],[-37.763,-11.524],[-37.763,-11.528],[-37.77,-11.531],[-37.775,-11.524],[-37.791,-11.523],[-37.795,-11.518],[-37.8,-11.52],[-37.812,-11.516],[-37.819,-11.501],[-37.818,-11.499],[-37.813,-11.501],[-37.809,-11.496],[-37.816,-11.492],[-37.825,-11.491],[-37.833,-11.483],[-37.811,-11.422],[-37.807,-11.412],[-37.747,-11.412],[-37.736,-11.408],[-37.73,-11.401],[-37.723,-11.399],[-37.72,-11.407]]]}},{"type":"Feature","properties":{"id":"2801900","name":"Cumbe"},"geometry":{"type":"Polygon","coordinates":[[[-37.214,-10.3],[-37.211,-10.3],[-37.21,-10.296],[-37.207,-10.299],[-37.2,-10.296],[-37.193,-10.303],[-37.186,-10.301],[-37.182,-10.307],[-37.172,-10.311],[-37.169,-10.321],[-37.172,-10.324],[-37.166,-10.328],[-37.168,-10.333],[-37.174,-10.334],[-37.171,-10.338],[-37.173,-10.339],[-37.168,-10.342],[-37.163,-10.34],[-37.153,-10.347],[-37.157,-10.35],[-37.153,-10.358],[-37.159,-10.362],[-37.158,-10.366],[-37.153,-10.364],[-37.153,-10.367],[-37.146,-10.362],[-37.147,-10.366],[-37.144,-10.367],[-37.144,-10.362],[-37.14,-10.363],[-37.14,-10.36],[-37.135,-10.359],[-37.128,-10.372],[-37.126,-10.372],[-37.128,-10.374],[-37.125,-10.375],[-37.132,-10.384],[-37.118,-10.388],[-37.118,-10.4],[-37.107,-10.4],[-37.113,-10.401],[-37.11,-10.405],[-37.118,-10.41],[-37.118,-10.409],[-37.121,-10.405],[-37.128,-10.411],[-37.132,-10.406],[-37.144,-10.42],[-37.148,-10.416],[-37.152,-10.418],[-37.151,-10.414],[-37.157,-10.411],[-37.162,-10.411],[-37.169,-10.418],[-37.175,-10.415],[-37.181,-10.416],[-37.19,-10.406],[-37.207,-10.402],[-37.21,-10.395],[-37.211,-10.393],[-37.211,-10.392],[-37.223,-10.381],[-37.225,-10.38],[-37.228,-10.376],[-37.228,-10.376],[-37.232,-10.363],[-37.239,-10.359],[-37.239,-10.341],[-37.249,-10.318],[-37.235,-10.305],[-37.235,-10.301],[-37.237,-10.3],[-37.242,-10.293],[-37.241,-10.287],[-37.256,-10.28],[-37.258,-10.268],[-37.293,-10.255],[-37.261,-10.237],[-37.261,-10.238],[-37.249,-10.257],[-37.242,-10.262],[-37.236,-10.274],[-37.237,-10.28],[-37.231,-10.283],[-37.225,-10.297],[-37.214,-10.3]]]}},{"type":"Feature","properties":{"id":"2802007","name":"Divina Pastora"},"geometry":{"type":"Polygon","coordinates":[[[-37.207,-10.607],[-37.178,-10.625],[-37.15,-10.62],[-37.159,-10.627],[-37.143,-10.625],[-37.146,-10.636],[-37.142,-10.644],[-37.134,-10.651],[-37.115,-10.647],[-37.099,-10.644],[-37.094,-10.638],[-37.092,-10.641],[-37.089,-10.648],[-37.09,-10.655],[-37.115,-10.684],[-37.121,-10.702],[-37.142,-10.7],[-37.146,-10.719],[-37.152,-10.722],[-37.154,-10.726],[-37.151,-10.733],[-37.151,-10.738],[-37.158,-10.742],[-37.157,-10.747],[-37.161,-10.751],[-37.164,-10.743],[-37.161,-10.736],[-37.171,-10.734],[-37.168,-10.727],[-37.175,-10.723],[-37.181,-10.718],[-37.185,-10.724],[-37.187,-10.725],[-37.194,-10.728],[-37.207,-10.725],[-37.2,-10.72],[-37.203,-10.716],[-37.202,-10.71],[-37.207,-10.706],[-37.203,-10.698],[-37.197,-10.692],[-37.2,-10.689],[-37.199,-10.677],[-37.193,-10.676],[-37.191,-10.669],[-37.194,-10.668],[-37.19,-10.664],[-37.189,-10.658],[-37.181,-10.655],[-37.184,-10.649],[-37.181,-10.641],[-37.185,-10.64],[-37.193,-10.627],[-37.203,-10.628],[-37.205,-10.624],[-37.203,-10.614],[-37.207,-10.607]]]}},{"type":"Feature","properties":{"id":"2802106","name":"Estância"},"geometry":{"type":"Polygon","coordinates":[[[-37.338,-11.166],[-37.342,-11.175],[-37.346,-11.176],[-37.348,-11.193],[-37.349,-11.197],[-37.34,-11.207],[-37.33,-11.214],[-37.332,-11.218],[-37.328,-11.222],[-37.331,-11.231],[-37.329,-11.237],[-37.313,-11.248],[-37.312,-11.249],[-37.282,-11.273],[-37.261,-11.288],[-37.281,-11.32],[-37.293,-11.345],[-37.319,-11.427],[-37.325,-11.431],[-37.33,-11.445],[-37.341,-11.442],[-37.352,-11.442],[-37.373,-11.454],[-37.401,-11.434],[-37.401,-11.434],[-37.403,-11.431],[-37.408,-11.423],[-37.408,-11.423],[-37.41,-11.41],[-37.406,-11.393],[-37.388,-11.369],[-37.388,-11.355],[-37.377,-11.337],[-37.387,-11.319],[-37.399,-11.313],[-37.407,-11.301],[-37.422,-11.302],[-37.426,-11.307],[-37.446,-11.293],[-37.452,-11.301],[-37.452,-11.301],[-37.462,-11.311],[-37.488,-11.303],[-37.502,-11.304],[-37.523,-11.3],[-37.524,-11.293],[-37.521,-11.291],[-37.516,-11.289],[-37.507,-11.274],[-37.514,-11.272],[-37.515,-11.265],[-37.523,-11.258],[-37.526,-11.254],[-37.524,-11.242],[-37.529,-11.242],[-37.53,-11.237],[-37.525,-11.232],[-37.525,-11.227],[-37.533,-11.227],[-37.538,-11.219],[-37.532,-11.197],[-37.536,-11.188],[-37.543,-11.188],[-37.547,-11.182],[-37.55,-11.185],[-37.554,-11.183],[-37.556,-11.178],[-37.55,-11.173],[-37.547,-11.166],[-37.501,-11.156],[-37.499,-11.155],[-37.488,-11.153],[-37.459,-11.146],[-37.437,-11.126],[-37.435,-11.117],[-37.439,-11.116],[-37.437,-11.111],[-37.432,-11.11],[-37.43,-11.105],[-37.438,-11.097],[-37.438,-11.087],[-37.422,-11.076],[-37.389,-11.053],[-37.389,-11.053],[-37.385,-11.055],[-37.378,-11.069],[-37.37,-11.072],[-37.366,-11.078],[-37.357,-11.088],[-37.351,-11.091],[-37.337,-11.112],[-37.339,-11.128],[-37.331,-11.138],[-37.332,-11.147],[-37.339,-11.152],[-37.339,-11.162],[-37.338,-11.166]]]}},{"type":"Feature","properties":{"id":"2802205","name":"Feira Nova"},"geometry":{"type":"Polygon","coordinates":[[[-37.256,-10.28],[-37.241,-10.287],[-37.242,-10.293],[-37.237,-10.3],[-37.244,-10.298],[-37.254,-10.305],[-37.265,-10.303],[-37.274,-10.306],[-37.273,-10.309],[-37.27,-10.314],[-37.28,-10.311],[-37.286,-10.314],[-37.287,-10.319],[-37.295,-10.32],[-37.297,-10.325],[-37.302,-10.328],[-37.301,-10.333],[-37.309,-10.347],[-37.318,-10.351],[-37.316,-10.359],[-37.326,-10.366],[-37.326,-10.375],[-37.334,-10.379],[-37.343,-10.378],[-37.345,-10.38],[-37.341,-10.384],[-37.349,-10.384],[-37.35,-10.376],[-37.35,-10.376],[-37.349,-10.371],[-37.356,-10.368],[-37.354,-10.363],[-37.351,-10.365],[-37.345,-10.362],[-37.345,-10.358],[-37.35,-10.355],[-37.35,-10.346],[-37.359,-10.344],[-37.36,-10.336],[-37.356,-10.334],[-37.363,-10.329],[-37.369,-10.33],[-37.371,-10.327],[-37.373,-10.33],[-37.378,-10.317],[-37.382,-10.315],[-37.388,-10.32],[-37.391,-10.317],[-37.385,-10.309],[-37.387,-10.305],[-37.387,-10.293],[-37.389,-10.294],[-37.394,-10.288],[-37.39,-10.273],[-37.394,-10.26],[-37.398,-10.255],[-37.391,-10.238],[-37.384,-10.218],[-37.361,-10.215],[-37.336,-10.211],[-37.332,-10.21],[-37.261,-10.237],[-37.293,-10.255],[-37.258,-10.268],[-37.256,-10.28]]]}},{"type":"Feature","properties":{"id":"2802304","name":"Frei Paulo"},"geometry":{"type":"Polygon","coordinates":[[[-37.506,-10.62],[-37.53,-10.645],[-37.558,-10.619],[-37.612,-10.609],[-37.63,-10.606],[-37.641,-10.604],[-37.649,-10.591],[-37.675,-10.553],[-37.688,-10.533],[-37.725,-10.509],[-37.724,-10.509],[-37.681,-10.48],[-37.627,-10.415],[-37.622,-10.41],[-37.575,-10.371],[-37.558,-10.444],[-37.548,-10.461],[-37.548,-10.461],[-37.547,-10.462],[-37.511,-10.506],[-37.506,-10.515],[-37.5,-10.528],[-37.499,-10.53],[-37.474,-10.566],[-37.474,-10.566],[-37.489,-10.592],[-37.499,-10.609],[-37.506,-10.62]]]}},{"type":"Feature","properties":{"id":"2802403","name":"Gararu"},"geometry":{"type":"Polygon","coordinates":[[[-37.132,-9.913],[-37.08,-9.961],[-37.075,-9.966],[-37.065,-9.975],[-37.062,-9.977],[-37.061,-9.978],[-37.044,-9.988],[-37.03,-9.986],[-37.005,-9.976],[-36.995,-9.975],[-36.967,-9.992],[-36.959,-10.011],[-36.958,-10.013],[-36.958,-10.014],[-36.958,-10.014],[-36.957,-10.015],[-36.956,-10.023],[-36.956,-10.023],[-36.958,-10.024],[-36.965,-10.026],[-37.006,-10.037],[-37.027,-10.054],[-37.061,-10.061],[-37.062,-10.061],[-37.102,-10.051],[-37.103,-10.055],[-37.111,-10.051],[-37.128,-10.057],[-37.131,-10.054],[-37.138,-10.056],[-37.139,-10.053],[-37.146,-10.051],[-37.159,-10.052],[-37.173,-10.049],[-37.18,-10.034],[-37.19,-10.028],[-37.196,-10.026],[-37.192,-10.031],[-37.188,-10.031],[-37.19,-10.034],[-37.187,-10.041],[-37.192,-10.049],[-37.185,-10.055],[-37.189,-10.057],[-37.189,-10.061],[-37.197,-10.069],[-37.19,-10.07],[-37.186,-10.066],[-37.185,-10.074],[-37.195,-10.074],[-37.199,-10.081],[-37.211,-10.077],[-37.213,-10.082],[-37.205,-10.096],[-37.217,-10.09],[-37.219,-10.091],[-37.214,-10.102],[-37.222,-10.1],[-37.229,-10.1],[-37.232,-10.114],[-37.231,-10.116],[-37.224,-10.112],[-37.22,-10.113],[-37.226,-10.12],[-37.223,-10.119],[-37.22,-10.122],[-37.222,-10.125],[-37.218,-10.131],[-37.223,-10.133],[-37.22,-10.135],[-37.219,-10.142],[-37.224,-10.144],[-37.22,-10.149],[-37.221,-10.157],[-37.228,-10.153],[-37.23,-10.159],[-37.238,-10.159],[-37.245,-10.147],[-37.249,-10.154],[-37.255,-10.152],[-37.261,-10.155],[-37.262,-10.159],[-37.262,-10.164],[-37.268,-10.166],[-37.272,-10.165],[-37.28,-10.171],[-37.284,-10.168],[-37.282,-10.16],[-37.285,-10.156],[-37.3,-10.156],[-37.31,-10.155],[-37.314,-10.153],[-37.345,-10.156],[-37.331,-10.128],[-37.348,-10.115],[-37.382,-10.087],[-37.382,-10.087],[-37.41,-10.064],[-37.42,-10.062],[-37.409,-10.052],[-37.401,-10.052],[-37.4,-10.045],[-37.394,-10.049],[-37.392,-10.04],[-37.383,-10.038],[-37.385,-10.03],[-37.376,-10.026],[-37.38,-10.021],[-37.373,-10.021],[-37.373,-10.017],[-37.379,-10.01],[-37.367,-10.007],[-37.364,-10.01],[-37.365,-10.015],[-37.36,-10.013],[-37.354,-10.015],[-37.348,-10.004],[-37.354,-10.004],[-37.355,-10.0],[-37.352,-9.994],[-37.349,-10.0],[-37.343,-9.999],[-37.344,-9.992],[-37.339,-9.986],[-37.333,-9.993],[-37.334,-10.004],[-37.328,-10.01],[-37.332,-10.015],[-37.325,-10.013],[-37.316,-10.008],[-37.313,-9.999],[-37.308,-9.999],[-37.302,-10.002],[-37.294,-10.015],[-37.286,-10.009],[-37.288,-9.993],[-37.285,-9.988],[-37.266,-9.993],[-37.273,-9.965],[-37.268,-9.961],[-37.261,-9.965],[-37.257,-9.958],[-37.234,-9.957],[-37.231,-9.912],[-37.226,-9.899],[-37.195,-9.898],[-37.153,-9.9],[-37.132,-9.913]]]}},{"type":"Feature","properties":{"id":"2802502","name":"General Maynard"},"geometry":{"type":"Polygon","coordinates":[[[-36.935,-10.696],[-36.949,-10.712],[-36.95,-10.713],[-36.961,-10.705],[-36.97,-10.706],[-36.975,-10.701],[-36.98,-10.7],[-36.992,-10.703],[-37.005,-10.696],[-37.016,-10.684],[-37.011,-10.681],[-37.011,-10.675],[-36.988,-10.681],[-36.982,-10.683],[-36.943,-10.685],[-36.917,-10.686],[-36.935,-10.696]]]}},{"type":"Feature","properties":{"id":"2802601","name":"Gracho Cardoso"},"geometry":{"type":"Polygon","coordinates":[[[-37.203,-10.154],[-37.204,-10.158],[-37.199,-10.158],[-37.194,-10.163],[-37.189,-10.158],[-37.18,-10.174],[-37.174,-10.174],[-37.173,-10.17],[-37.163,-10.171],[-37.152,-10.165],[-37.154,-10.187],[-37.137,-10.193],[-37.136,-10.2],[-37.136,-10.2],[-37.143,-10.204],[-37.15,-10.222],[-37.151,-10.236],[-37.149,-10.241],[-37.141,-10.246],[-37.142,-10.256],[-37.138,-10.262],[-37.138,-10.275],[-37.139,-10.28],[-37.147,-10.288],[-37.15,-10.288],[-37.149,-10.293],[-37.147,-10.303],[-37.155,-10.307],[-37.149,-10.315],[-37.149,-10.322],[-37.165,-10.332],[-37.162,-10.334],[-37.163,-10.34],[-37.168,-10.342],[-37.173,-10.339],[-37.171,-10.338],[-37.174,-10.334],[-37.168,-10.333],[-37.166,-10.328],[-37.172,-10.324],[-37.169,-10.321],[-37.172,-10.311],[-37.182,-10.307],[-37.186,-10.301],[-37.193,-10.303],[-37.2,-10.296],[-37.207,-10.299],[-37.21,-10.296],[-37.211,-10.3],[-37.214,-10.3],[-37.225,-10.297],[-37.231,-10.283],[-37.237,-10.28],[-37.236,-10.274],[-37.242,-10.262],[-37.249,-10.257],[-37.261,-10.238],[-37.261,-10.237],[-37.332,-10.21],[-37.314,-10.153],[-37.31,-10.155],[-37.3,-10.156],[-37.285,-10.156],[-37.282,-10.16],[-37.284,-10.168],[-37.28,-10.171],[-37.272,-10.165],[-37.268,-10.166],[-37.262,-10.164],[-37.262,-10.159],[-37.261,-10.155],[-37.255,-10.152],[-37.249,-10.154],[-37.245,-10.147],[-37.238,-10.159],[-37.23,-10.159],[-37.228,-10.153],[-37.221,-10.157],[-37.22,-10.149],[-37.224,-10.144],[-37.219,-10.142],[-37.22,-10.135],[-37.204,-10.147],[-37.207,-10.15],[-37.203,-10.154]]]}},{"type":"Feature","properties":{"id":"2802700","name":"Ilha das Flores"},"geometry":{"type":"Polygon","coordinates":[[[-36.563,-10.419],[-36.544,-10.43],[-36.538,-10.422],[-36.51,-10.421],[-36.519,-10.424],[-36.522,-10.433],[-36.51,-10.432],[-36.489,-10.424],[-36.484,-10.437],[-36.497,-10.441],[-36.513,-10.446],[-36.527,-10.465],[-36.557,-10.483],[-36.585,-10.499],[-36.6,-10.496],[-36.6,-10.491],[-36.592,-10.482],[-36.6,-10.478],[-36.594,-10.46],[-36.595,-10.449],[-36.59,-10.445],[-36.586,-10.451],[-36.586,-10.444],[-36.583,-10.44],[-36.58,-10.441],[-36.582,-10.437],[-36.575,-10.438],[-36.575,-10.435],[-36.566,-10.432],[-36.563,-10.419]]]}},{"type":"Feature","properties":{"id":"2802809","name":"Indiaroba"},"geometry":{"type":"Polygon","coordinates":[[[-37.535,-11.416],[-37.525,-11.423],[-37.508,-11.414],[-37.503,-11.428],[-37.494,-11.443],[-37.493,-11.443],[-37.485,-11.443],[-37.48,-11.45],[-37.47,-11.45],[-37.472,-11.447],[-37.469,-11.446],[-37.464,-11.451],[-37.461,-11.444],[-37.447,-11.441],[-37.441,-11.425],[-37.432,-11.424],[-37.422,-11.43],[-37.414,-11.428],[-37.408,-11.423],[-37.403,-11.431],[-37.401,-11.434],[-37.401,-11.434],[-37.373,-11.454],[-37.392,-11.478],[-37.403,-11.488],[-37.412,-11.495],[-37.45,-11.52],[-37.463,-11.523],[-37.503,-11.524],[-37.509,-11.53],[-37.516,-11.535],[-37.52,-11.548],[-37.553,-11.547],[-37.558,-11.55],[-37.562,-11.543],[-37.569,-11.539],[-37.573,-11.542],[-37.572,-11.548],[-37.579,-11.552],[-37.585,-11.542],[-37.579,-11.534],[-37.581,-11.531],[-37.589,-11.528],[-37.603,-11.54],[-37.608,-11.536],[-37.616,-11.538],[-37.628,-11.529],[-37.632,-11.518],[-37.636,-11.512],[-37.637,-11.501],[-37.646,-11.503],[-37.648,-11.5],[-37.645,-11.499],[-37.646,-11.486],[-37.652,-11.482],[-37.641,-11.461],[-37.634,-11.449],[-37.611,-11.404],[-37.602,-11.388],[-37.602,-11.388],[-37.579,-11.402],[-37.579,-11.402],[-37.572,-11.406],[-37.57,-11.408],[-37.564,-11.411],[-37.559,-11.415],[-37.535,-11.416]]]}},{"type":"Feature","properties":{"id":"2802908","name":"Itabaiana"},"geometry":{"type":"Polygon","coordinates":[[[-37.472,-10.57],[-37.462,-10.595],[-37.442,-10.585],[-37.422,-10.576],[-37.412,-10.578],[-37.395,-10.582],[-37.392,-10.585],[-37.391,-10.589],[-37.387,-10.596],[-37.39,-10.601],[-37.388,-10.617],[-37.388,-10.617],[-37.39,-10.626],[-37.387,-10.629],[-37.38,-10.63],[-37.379,-10.623],[-37.375,-10.631],[-37.37,-10.632],[-37.368,-10.638],[-37.365,-10.644],[-37.36,-10.645],[-37.362,-10.65],[-37.359,-10.654],[-37.347,-10.658],[-37.329,-10.653],[-37.321,-10.687],[-37.325,-10.705],[-37.331,-10.718],[-37.336,-10.721],[-37.345,-10.727],[-37.353,-10.733],[-37.363,-10.741],[-37.363,-10.742],[-37.376,-10.768],[-37.377,-10.771],[-37.392,-10.803],[-37.396,-10.809],[-37.403,-10.824],[-37.424,-10.829],[-37.427,-10.83],[-37.431,-10.831],[-37.443,-10.802],[-37.449,-10.787],[-37.446,-10.782],[-37.443,-10.785],[-37.441,-10.783],[-37.442,-10.776],[-37.452,-10.77],[-37.449,-10.766],[-37.451,-10.763],[-37.45,-10.75],[-37.452,-10.738],[-37.458,-10.721],[-37.463,-10.713],[-37.474,-10.71],[-37.481,-10.7],[-37.496,-10.695],[-37.5,-10.693],[-37.5,-10.688],[-37.505,-10.68],[-37.508,-10.672],[-37.518,-10.666],[-37.52,-10.655],[-37.521,-10.654],[-37.53,-10.645],[-37.506,-10.62],[-37.499,-10.609],[-37.489,-10.592],[-37.474,-10.566],[-37.472,-10.57]]]}},{"type":"Feature","properties":{"id":"2803005","name":"Itabaianinha"},"geometry":{"type":"Polygon","coordinates":[[[-37.775,-11.133],[-37.765,-11.142],[-37.761,-11.141],[-37.751,-11.149],[-37.743,-11.155],[-37.738,-11.151],[-37.728,-11.165],[-37.719,-11.162],[-37.712,-11.169],[-37.707,-11.175],[-37.702,-11.181],[-37.701,-11.184],[-37.705,-11.192],[-37.705,-11.193],[-37.697,-11.198],[-37.696,-11.205],[-37.69,-11.204],[-37.683,-11.221],[-37.677,-11.235],[-37.672,-11.238],[-37.67,-11.244],[-37.665,-11.246],[-37.663,-11.254],[-37.663,-11.282],[-37.663,-11.29],[-37.692,-11.308],[-37.692,-11.316],[-37.692,-11.33],[-37.692,-11.365],[-37.702,-11.375],[-37.73,-11.401],[-37.736,-11.408],[-37.747,-11.412],[-37.751,-11.4],[-37.751,-11.405],[-37.759,-11.407],[-37.764,-11.404],[-37.761,-11.394],[-37.769,-11.39],[-37.771,-11.377],[-37.778,-11.378],[-37.785,-11.373],[-37.786,-11.365],[-37.787,-11.359],[-37.791,-11.36],[-37.791,-11.348],[-37.815,-11.331],[-37.815,-11.324],[-37.815,-11.324],[-37.822,-11.319],[-37.829,-11.321],[-37.836,-11.314],[-37.838,-11.313],[-37.846,-11.305],[-37.848,-11.301],[-37.852,-11.297],[-37.855,-11.3],[-37.863,-11.3],[-37.871,-11.284],[-37.874,-11.285],[-37.878,-11.289],[-37.901,-11.272],[-37.907,-11.264],[-37.918,-11.265],[-37.927,-11.252],[-37.915,-11.235],[-37.904,-11.221],[-37.886,-11.213],[-37.883,-11.211],[-37.878,-11.217],[-37.868,-11.222],[-37.866,-11.21],[-37.871,-11.207],[-37.869,-11.201],[-37.876,-11.19],[-37.876,-11.186],[-37.862,-11.174],[-37.861,-11.173],[-37.846,-11.161],[-37.828,-11.151],[-37.793,-11.133],[-37.785,-11.132],[-37.784,-11.132],[-37.775,-11.133]]]}},{"type":"Feature","properties":{"id":"2803104","name":"Itabi"},"geometry":{"type":"Polygon","coordinates":[[[-37.173,-10.049],[-37.159,-10.052],[-37.146,-10.051],[-37.139,-10.053],[-37.138,-10.056],[-37.131,-10.054],[-37.128,-10.057],[-37.111,-10.051],[-37.103,-10.055],[-37.102,-10.051],[-37.062,-10.061],[-37.064,-10.072],[-37.065,-10.078],[-37.068,-10.092],[-37.065,-10.136],[-37.09,-10.144],[-37.146,-10.163],[-37.152,-10.165],[-37.152,-10.165],[-37.163,-10.171],[-37.173,-10.17],[-37.174,-10.174],[-37.18,-10.174],[-37.189,-10.158],[-37.194,-10.163],[-37.199,-10.158],[-37.204,-10.158],[-37.203,-10.154],[-37.207,-10.15],[-37.204,-10.147],[-37.22,-10.135],[-37.223,-10.133],[-37.218,-10.131],[-37.222,-10.125],[-37.22,-10.122],[-37.223,-10.119],[-37.226,-10.12],[-37.22,-10.113],[-37.224,-10.112],[-37.231,-10.116],[-37.232,-10.114],[-37.229,-10.1],[-37.222,-10.1],[-37.214,-10.102],[-37.219,-10.091],[-37.217,-10.09],[-37.205,-10.096],[-37.213,-10.082],[-37.211,-10.077],[-37.199,-10.081],[-37.195,-10.074],[-37.185,-10.074],[-37.186,-10.066],[-37.19,-10.07],[-37.197,-10.069],[-37.189,-10.061],[-37.189,-10.057],[-37.185,-10.055],[-37.192,-10.049],[-37.187,-10.041],[-37.19,-10.034],[-37.188,-10.031],[-37.192,-10.031],[-37.196,-10.026],[-37.19,-10.028],[-37.18,-10.034],[-37.173,-10.049]]]}},{"type":"Feature","properties":{"id":"2803203","name":"Itaporanga d'Ajuda"},"geometry":{"type":"Polygon","coordinates":[[[-37.403,-10.844],[-37.375,-10.852],[-37.363,-10.847],[-37.351,-10.849],[-37.341,-10.848],[-37.337,-10.839],[-37.329,-10.833],[-37.318,-10.834],[-37.329,-10.921],[-37.331,-10.939],[-37.338,-10.946],[-37.335,-10.952],[-37.333,-10.964],[-37.325,-10.971],[-37.329,-10.977],[-37.306,-10.986],[-37.305,-10.993],[-37.303,-10.998],[-37.303,-10.998],[-37.299,-11.01],[-37.295,-11.017],[-37.285,-11.023],[-37.285,-11.027],[-37.253,-11.034],[-37.227,-11.04],[-37.224,-11.065],[-37.219,-11.076],[-37.204,-11.085],[-37.183,-11.093],[-37.166,-11.105],[-37.162,-11.117],[-37.162,-11.133],[-37.167,-11.146],[-37.163,-11.152],[-37.157,-11.157],[-37.152,-11.162],[-37.197,-11.212],[-37.205,-11.22],[-37.261,-11.288],[-37.282,-11.273],[-37.312,-11.249],[-37.313,-11.248],[-37.329,-11.237],[-37.331,-11.231],[-37.328,-11.222],[-37.332,-11.218],[-37.33,-11.214],[-37.34,-11.207],[-37.349,-11.197],[-37.348,-11.193],[-37.346,-11.176],[-37.342,-11.175],[-37.338,-11.166],[-37.339,-11.162],[-37.339,-11.152],[-37.332,-11.147],[-37.331,-11.138],[-37.339,-11.128],[-37.337,-11.112],[-37.351,-11.091],[-37.357,-11.088],[-37.366,-11.078],[-37.37,-11.072],[-37.378,-11.069],[-37.385,-11.055],[-37.389,-11.053],[-37.389,-11.053],[-37.404,-11.035],[-37.404,-11.034],[-37.405,-11.028],[-37.413,-11.008],[-37.426,-11.001],[-37.428,-10.989],[-37.434,-10.988],[-37.439,-10.982],[-37.455,-10.977],[-37.471,-10.952],[-37.474,-10.947],[-37.48,-10.938],[-37.481,-10.937],[-37.503,-10.901],[-37.496,-10.905],[-37.485,-10.9],[-37.473,-10.893],[-37.465,-10.893],[-37.456,-10.882],[-37.442,-10.867],[-37.404,-10.826],[-37.407,-10.832],[-37.403,-10.844]]]}},{"type":"Feature","properties":{"id":"2803302","name":"Japaratuba"},"geometry":{"type":"Polygon","coordinates":[[[-36.877,-10.412],[-36.868,-10.419],[-36.857,-10.419],[-36.857,-10.428],[-36.867,-10.431],[-36.875,-10.438],[-36.87,-10.454],[-36.868,-10.48],[-36.868,-10.485],[-36.862,-10.49],[-36.86,-10.497],[-36.847,-10.498],[-36.838,-10.507],[-36.831,-10.532],[-36.808,-10.549],[-36.808,-10.569],[-36.809,-10.574],[-36.783,-10.575],[-36.84,-10.619],[-36.853,-10.629],[-36.893,-10.66],[-36.899,-10.663],[-36.903,-10.662],[-36.906,-10.664],[-36.91,-10.667],[-36.923,-10.676],[-36.93,-10.67],[-36.934,-10.654],[-36.961,-10.65],[-36.97,-10.637],[-36.969,-10.631],[-36.981,-10.631],[-36.992,-10.631],[-37.011,-10.64],[-36.992,-10.589],[-36.976,-10.543],[-36.976,-10.538],[-36.976,-10.538],[-36.977,-10.53],[-36.956,-10.523],[-36.945,-10.485],[-36.935,-10.45],[-36.932,-10.427],[-36.929,-10.424],[-36.925,-10.427],[-36.917,-10.42],[-36.911,-10.42],[-36.905,-10.417],[-36.904,-10.412],[-36.903,-10.403],[-36.883,-10.397],[-36.877,-10.406],[-36.877,-10.412]]]}},{"type":"Feature","properties":{"id":"2803401","name":"Japoatã"},"geometry":{"type":"Polygon","coordinates":[[[-36.794,-10.288],[-36.789,-10.299],[-36.778,-10.308],[-36.778,-10.308],[-36.77,-10.31],[-36.762,-10.318],[-36.75,-10.314],[-36.739,-10.321],[-36.736,-10.326],[-36.738,-10.34],[-36.733,-10.358],[-36.718,-10.38],[-36.702,-10.405],[-36.712,-10.452],[-36.714,-10.459],[-36.731,-10.522],[-36.733,-10.531],[-36.75,-10.594],[-36.755,-10.594],[-36.765,-10.581],[-36.783,-10.575],[-36.809,-10.574],[-36.808,-10.569],[-36.808,-10.549],[-36.831,-10.532],[-36.838,-10.507],[-36.847,-10.498],[-36.86,-10.497],[-36.862,-10.49],[-36.868,-10.485],[-36.868,-10.48],[-36.87,-10.454],[-36.875,-10.438],[-36.867,-10.431],[-36.857,-10.428],[-36.857,-10.419],[-36.868,-10.419],[-36.877,-10.412],[-36.877,-10.406],[-36.883,-10.397],[-36.903,-10.403],[-36.895,-10.386],[-36.855,-10.382],[-36.849,-10.373],[-36.84,-10.356],[-36.838,-10.342],[-36.827,-10.332],[-36.821,-10.311],[-36.817,-10.311],[-36.823,-10.303],[-36.819,-10.297],[-36.811,-10.297],[-36.802,-10.284],[-36.799,-10.282],[-36.8,-10.287],[-36.794,-10.288]]]}},{"type":"Feature","properties":{"id":"2803500","name":"Lagarto"},"geometry":{"type":"Polygon","coordinates":[[[-37.647,-10.709],[-37.637,-10.712],[-37.62,-10.706],[-37.618,-10.712],[-37.617,-10.714],[-37.63,-10.725],[-37.632,-10.732],[-37.628,-10.74],[-37.633,-10.747],[-37.62,-10.748],[-37.607,-10.767],[-37.6,-10.781],[-37.613,-10.795],[-37.614,-10.801],[-37.61,-10.812],[-37.6,-10.815],[-37.597,-10.821],[-37.597,-10.822],[-37.581,-10.836],[-37.573,-10.839],[-37.565,-10.836],[-37.552,-10.84],[-37.544,-10.835],[-37.541,-10.838],[-37.517,-10.844],[-37.511,-10.843],[-37.509,-10.835],[-37.498,-10.833],[-37.494,-10.83],[-37.488,-10.833],[-37.488,-10.838],[-37.481,-10.841],[-37.483,-10.858],[-37.478,-10.859],[-37.471,-10.853],[-37.457,-10.872],[-37.459,-10.879],[-37.456,-10.882],[-37.465,-10.893],[-37.473,-10.893],[-37.485,-10.9],[-37.496,-10.905],[-37.503,-10.901],[-37.481,-10.937],[-37.48,-10.938],[-37.474,-10.947],[-37.471,-10.952],[-37.455,-10.977],[-37.456,-10.977],[-37.506,-10.964],[-37.518,-10.96],[-37.519,-10.96],[-37.528,-10.987],[-37.53,-10.993],[-37.53,-10.993],[-37.531,-10.996],[-37.547,-11.008],[-37.549,-11.01],[-37.568,-11.025],[-37.57,-11.034],[-37.565,-11.04],[-37.622,-11.067],[-37.622,-11.067],[-37.634,-11.064],[-37.644,-11.046],[-37.651,-11.047],[-37.656,-11.04],[-37.67,-11.031],[-37.675,-11.022],[-37.685,-11.027],[-37.692,-11.026],[-37.713,-11.0],[-37.719,-10.997],[-37.725,-10.993],[-37.743,-10.99],[-37.745,-10.997],[-37.74,-11.002],[-37.741,-11.011],[-37.749,-11.01],[-37.754,-11.004],[-37.761,-11.011],[-37.766,-11.01],[-37.768,-11.017],[-37.774,-11.017],[-37.776,-11.006],[-37.781,-11.011],[-37.786,-11.008],[-37.793,-11.019],[-37.798,-11.012],[-37.809,-11.011],[-37.812,-11.003],[-37.816,-11.007],[-37.822,-11.005],[-37.822,-10.996],[-37.825,-10.99],[-37.837,-10.988],[-37.832,-10.98],[-37.839,-10.97],[-37.838,-10.964],[-37.839,-10.955],[-37.834,-10.951],[-37.84,-10.947],[-37.846,-10.934],[-37.851,-10.934],[-37.875,-10.921],[-37.866,-10.898],[-37.877,-10.864],[-37.86,-10.869],[-37.848,-10.865],[-37.828,-10.859],[-37.813,-10.869],[-37.805,-10.841],[-37.799,-10.835],[-37.791,-10.831],[-37.766,-10.818],[-37.752,-10.807],[-37.74,-10.802],[-37.733,-10.797],[-37.724,-10.786],[-37.718,-10.769],[-37.72,-10.767],[-37.709,-10.754],[-37.71,-10.751],[-37.707,-10.738],[-37.698,-10.737],[-37.679,-10.727],[-37.678,-10.714],[-37.669,-10.708],[-37.664,-10.716],[-37.654,-10.709],[-37.647,-10.695],[-37.642,-10.699],[-37.647,-10.709]]]}},{"type":"Feature","properties":{"id":"2803609","name":"Laranjeiras"},"geometry":{"type":"Polygon","coordinates":[[[-37.161,-10.751],[-37.153,-10.769],[-37.148,-10.771],[-37.144,-10.766],[-37.133,-10.768],[-37.134,-10.776],[-37.132,-10.782],[-37.126,-10.786],[-37.103,-10.774],[-37.088,-10.783],[-37.087,-10.798],[-37.075,-10.807],[-37.065,-10.823],[-37.093,-10.823],[-37.104,-10.819],[-37.111,-10.829],[-37.125,-10.834],[-37.137,-10.835],[-37.154,-10.833],[-37.158,-10.832],[-37.159,-10.836],[-37.174,-10.842],[-37.18,-10.855],[-37.19,-10.853],[-37.19,-10.853],[-37.206,-10.848],[-37.215,-10.848],[-37.231,-10.836],[-37.243,-10.834],[-37.317,-10.831],[-37.283,-10.806],[-37.273,-10.798],[-37.245,-10.778],[-37.229,-10.761],[-37.221,-10.759],[-37.215,-10.766],[-37.168,-10.753],[-37.161,-10.751]]]}},{"type":"Feature","properties":{"id":"2803708","name":"Macambira"},"geometry":{"type":"Polygon","coordinates":[[[-37.508,-10.672],[-37.505,-10.68],[-37.5,-10.688],[-37.527,-10.688],[-37.532,-10.688],[-37.536,-10.694],[-37.548,-10.697],[-37.548,-10.697],[-37.561,-10.691],[-37.574,-10.69],[-37.577,-10.685],[-37.585,-10.68],[-37.595,-10.696],[-37.604,-10.693],[-37.608,-10.7],[-37.605,-10.709],[-37.609,-10.706],[-37.611,-10.712],[-37.618,-10.712],[-37.62,-10.706],[-37.637,-10.712],[-37.647,-10.709],[-37.642,-10.699],[-37.647,-10.695],[-37.654,-10.709],[-37.664,-10.716],[-37.662,-10.712],[-37.666,-10.707],[-37.662,-10.703],[-37.664,-10.691],[-37.663,-10.681],[-37.669,-10.674],[-37.662,-10.654],[-37.656,-10.647],[-37.65,-10.617],[-37.641,-10.604],[-37.63,-10.606],[-37.612,-10.609],[-37.558,-10.619],[-37.53,-10.645],[-37.521,-10.654],[-37.52,-10.655],[-37.518,-10.666],[-37.508,-10.672]]]}},{"type":"Feature","properties":{"id":"2803807","name":"Malhada dos Bois"},"geometry":{"type":"Polygon","coordinates":[[[-36.914,-10.379],[-36.915,-10.393],[-36.927,-10.381],[-36.95,-10.356],[-36.97,-10.336],[-37.009,-10.302],[-36.956,-10.29],[-36.937,-10.278],[-36.933,-10.276],[-36.936,-10.306],[-36.932,-10.308],[-36.902,-10.324],[-36.9,-10.35],[-36.913,-10.374],[-36.914,-10.379]]]}},{"type":"Feature","properties":{"id":"2803906","name":"Malhador"},"geometry":{"type":"Polygon","coordinates":[[[-37.296,-10.601],[-37.295,-10.61],[-37.291,-10.61],[-37.281,-10.62],[-37.28,-10.633],[-37.269,-10.635],[-37.26,-10.649],[-37.247,-10.651],[-37.247,-10.661],[-37.239,-10.665],[-37.231,-10.674],[-37.228,-10.684],[-37.232,-10.696],[-37.224,-10.704],[-37.227,-10.708],[-37.23,-10.703],[-37.233,-10.704],[-37.237,-10.704],[-37.239,-10.708],[-37.245,-10.706],[-37.25,-10.709],[-37.251,-10.705],[-37.259,-10.702],[-37.265,-10.708],[-37.265,-10.713],[-37.272,-10.715],[-37.276,-10.711],[-37.283,-10.721],[-37.293,-10.722],[-37.299,-10.73],[-37.316,-10.74],[-37.319,-10.738],[-37.315,-10.734],[-37.312,-10.733],[-37.315,-10.731],[-37.318,-10.731],[-37.332,-10.726],[-37.336,-10.721],[-37.331,-10.718],[-37.325,-10.705],[-37.321,-10.687],[-37.329,-10.653],[-37.329,-10.653],[-37.332,-10.639],[-37.328,-10.628],[-37.321,-10.619],[-37.315,-10.615],[-37.303,-10.606],[-37.296,-10.601]]]}},{"type":"Feature","properties":{"id":"2804003","name":"Maruim"},"geometry":{"type":"Polygon","coordinates":[[[-37.089,-10.683],[-37.085,-10.686],[-37.075,-10.684],[-37.069,-10.691],[-37.059,-10.692],[-37.053,-10.702],[-37.062,-10.718],[-37.07,-10.749],[-37.07,-10.751],[-37.069,-10.769],[-37.075,-10.779],[-37.08,-10.778],[-37.088,-10.783],[-37.103,-10.774],[-37.126,-10.786],[-37.132,-10.782],[-37.134,-10.776],[-37.133,-10.768],[-37.144,-10.766],[-37.148,-10.771],[-37.153,-10.769],[-37.161,-10.751],[-37.157,-10.747],[-37.158,-10.742],[-37.151,-10.738],[-37.151,-10.733],[-37.154,-10.726],[-37.152,-10.722],[-37.146,-10.719],[-37.142,-10.7],[-37.121,-10.702],[-37.115,-10.684],[-37.09,-10.655],[-37.093,-10.673],[-37.089,-10.683]]]}},{"type":"Feature","properties":{"id":"2804102","name":"Moita Bonita"},"geometry":{"type":"Polygon","coordinates":[[[-37.337,-10.539],[-37.334,-10.543],[-37.325,-10.541],[-37.321,-10.54],[-37.318,-10.547],[-37.311,-10.548],[-37.314,-10.558],[-37.311,-10.565],[-37.304,-10.574],[-37.294,-10.576],[-37.284,-10.574],[-37.272,-10.578],[-37.263,-10.577],[-37.249,-10.595],[-37.251,-10.595],[-37.265,-10.586],[-37.281,-10.587],[-37.287,-10.594],[-37.293,-10.594],[-37.296,-10.601],[-37.303,-10.606],[-37.315,-10.615],[-37.321,-10.619],[-37.328,-10.628],[-37.332,-10.639],[-37.329,-10.653],[-37.329,-10.653],[-37.347,-10.658],[-37.359,-10.654],[-37.362,-10.65],[-37.36,-10.645],[-37.365,-10.644],[-37.368,-10.638],[-37.37,-10.632],[-37.375,-10.631],[-37.379,-10.623],[-37.38,-10.63],[-37.387,-10.629],[-37.39,-10.626],[-37.388,-10.617],[-37.388,-10.617],[-37.39,-10.601],[-37.387,-10.596],[-37.391,-10.589],[-37.392,-10.585],[-37.395,-10.582],[-37.373,-10.563],[-37.364,-10.559],[-37.364,-10.549],[-37.346,-10.539],[-37.337,-10.539]]]}},{"type":"Feature","properties":{"id":"2804201","name":"Monte Alegre de Sergipe"},"geometry":{"type":"Polygon","coordinates":[[[-37.524,-10.009],[-37.488,-10.017],[-37.47,-10.022],[-37.428,-10.055],[-37.42,-10.062],[-37.42,-10.068],[-37.412,-10.069],[-37.414,-10.077],[-37.43,-10.064],[-37.428,-10.076],[-37.435,-10.072],[-37.442,-10.076],[-37.44,-10.085],[-37.433,-10.085],[-37.44,-10.091],[-37.436,-10.101],[-37.448,-10.105],[-37.449,-10.105],[-37.46,-10.102],[-37.459,-10.096],[-37.464,-10.092],[-37.475,-10.096],[-37.48,-10.089],[-37.484,-10.092],[-37.49,-10.102],[-37.495,-10.097],[-37.505,-10.104],[-37.513,-10.101],[-37.519,-10.109],[-37.523,-10.104],[-37.524,-10.11],[-37.531,-10.113],[-37.538,-10.11],[-37.542,-10.115],[-37.551,-10.112],[-37.551,-10.112],[-37.558,-10.122],[-37.563,-10.107],[-37.567,-10.108],[-37.585,-10.095],[-37.583,-10.091],[-37.589,-10.09],[-37.594,-10.097],[-37.598,-10.094],[-37.603,-10.103],[-37.614,-10.095],[-37.621,-10.106],[-37.63,-10.102],[-37.637,-10.11],[-37.645,-10.111],[-37.653,-10.121],[-37.659,-10.123],[-37.661,-10.129],[-37.667,-10.126],[-37.672,-10.13],[-37.679,-10.123],[-37.689,-10.123],[-37.696,-10.128],[-37.699,-10.126],[-37.723,-10.119],[-37.732,-10.111],[-37.74,-10.109],[-37.746,-10.112],[-37.783,-10.095],[-37.777,-10.133],[-37.781,-10.128],[-37.798,-10.109],[-37.809,-10.082],[-37.821,-10.057],[-37.824,-10.035],[-37.808,-10.032],[-37.775,-10.033],[-37.754,-10.026],[-37.738,-10.029],[-37.738,-10.025],[-37.731,-10.021],[-37.731,-10.024],[-37.722,-10.028],[-37.702,-10.014],[-37.698,-10.021],[-37.692,-10.02],[-37.685,-10.028],[-37.673,-10.025],[-37.666,-10.015],[-37.656,-10.014],[-37.645,-10.022],[-37.638,-10.019],[-37.633,-10.024],[-37.629,-10.022],[-37.626,-10.026],[-37.614,-10.026],[-37.606,-10.019],[-37.597,-10.024],[-37.595,-10.016],[-37.59,-10.016],[-37.587,-10.012],[-37.582,-9.998],[-37.563,-9.999],[-37.543,-10.003],[-37.524,-10.009]]]}},{"type":"Feature","properties":{"id":"2804300","name":"Muribeca"},"geometry":{"type":"Polygon","coordinates":[[[-37.009,-10.302],[-36.97,-10.336],[-36.95,-10.356],[-36.927,-10.381],[-36.915,-10.393],[-36.903,-10.403],[-36.904,-10.412],[-36.905,-10.417],[-36.911,-10.42],[-36.917,-10.42],[-36.925,-10.427],[-36.929,-10.424],[-36.932,-10.427],[-36.935,-10.45],[-36.937,-10.451],[-36.943,-10.445],[-36.953,-10.443],[-36.962,-10.442],[-36.964,-10.438],[-36.967,-10.425],[-36.974,-10.418],[-36.983,-10.403],[-36.981,-10.395],[-36.986,-10.385],[-36.978,-10.373],[-36.982,-10.37],[-36.984,-10.372],[-36.997,-10.354],[-37.0,-10.352],[-37.0,-10.328],[-37.006,-10.326],[-37.018,-10.332],[-37.012,-10.312],[-37.012,-10.312],[-37.012,-10.311],[-37.009,-10.302]]]}},{"type":"Feature","properties":{"id":"2804409","name":"Neópolis"},"geometry":{"type":"Polygon","coordinates":[[[-36.749,-10.261],[-36.74,-10.272],[-36.736,-10.282],[-36.732,-10.279],[-36.712,-10.282],[-36.705,-10.282],[-36.707,-10.278],[-36.702,-10.271],[-36.685,-10.275],[-36.681,-10.273],[-36.653,-10.321],[-36.601,-10.306],[-36.589,-10.301],[-36.574,-10.315],[-36.566,-10.329],[-36.566,-10.329],[-36.568,-10.362],[-36.564,-10.38],[-36.561,-10.385],[-36.562,-10.404],[-36.565,-10.411],[-36.563,-10.419],[-36.566,-10.432],[-36.575,-10.435],[-36.575,-10.438],[-36.582,-10.437],[-36.58,-10.441],[-36.583,-10.44],[-36.586,-10.444],[-36.586,-10.451],[-36.59,-10.445],[-36.595,-10.449],[-36.594,-10.46],[-36.6,-10.478],[-36.592,-10.482],[-36.6,-10.491],[-36.6,-10.496],[-36.605,-10.447],[-36.605,-10.444],[-36.607,-10.434],[-36.608,-10.42],[-36.598,-10.415],[-36.612,-10.411],[-36.617,-10.41],[-36.649,-10.399],[-36.702,-10.405],[-36.718,-10.38],[-36.733,-10.358],[-36.738,-10.34],[-36.736,-10.326],[-36.739,-10.321],[-36.75,-10.314],[-36.762,-10.318],[-36.77,-10.31],[-36.778,-10.308],[-36.778,-10.308],[-36.789,-10.299],[-36.794,-10.288],[-36.8,-10.287],[-36.799,-10.282],[-36.802,-10.284],[-36.8,-10.279],[-36.799,-10.279],[-36.795,-10.275],[-36.787,-10.262],[-36.777,-10.265],[-36.759,-10.254],[-36.756,-10.261],[-36.749,-10.261]]]}},{"type":"Feature","properties":{"id":"2804458","name":"Nossa Senhora Aparecida"},"geometry":{"type":"Polygon","coordinates":[[[-37.579,-10.247],[-37.573,-10.249],[-37.569,-10.247],[-37.568,-10.256],[-37.561,-10.261],[-37.557,-10.259],[-37.556,-10.266],[-37.551,-10.262],[-37.553,-10.258],[-37.539,-10.258],[-37.539,-10.265],[-37.543,-10.264],[-37.541,-10.268],[-37.545,-10.269],[-37.539,-10.272],[-37.531,-10.282],[-37.525,-10.281],[-37.523,-10.289],[-37.516,-10.288],[-37.516,-10.288],[-37.511,-10.296],[-37.507,-10.29],[-37.505,-10.294],[-37.499,-10.292],[-37.498,-10.295],[-37.488,-10.283],[-37.486,-10.286],[-37.482,-10.282],[-37.483,-10.295],[-37.472,-10.288],[-37.47,-10.29],[-37.468,-10.282],[-37.465,-10.283],[-37.462,-10.278],[-37.459,-10.279],[-37.459,-10.284],[-37.462,-10.285],[-37.459,-10.288],[-37.451,-10.292],[-37.446,-10.289],[-37.448,-10.294],[-37.442,-10.297],[-37.441,-10.295],[-37.435,-10.296],[-37.436,-10.304],[-37.428,-10.308],[-37.427,-10.302],[-37.42,-10.303],[-37.42,-10.306],[-37.418,-10.306],[-37.415,-10.303],[-37.41,-10.305],[-37.408,-10.291],[-37.403,-10.292],[-37.405,-10.306],[-37.406,-10.309],[-37.407,-10.318],[-37.413,-10.346],[-37.41,-10.367],[-37.411,-10.416],[-37.411,-10.416],[-37.421,-10.402],[-37.474,-10.459],[-37.484,-10.46],[-37.492,-10.46],[-37.521,-10.461],[-37.547,-10.462],[-37.548,-10.461],[-37.548,-10.461],[-37.558,-10.444],[-37.575,-10.371],[-37.578,-10.33],[-37.589,-10.312],[-37.589,-10.312],[-37.611,-10.277],[-37.596,-10.25],[-37.594,-10.252],[-37.591,-10.245],[-37.581,-10.24],[-37.579,-10.247]]]}},{"type":"Feature","properties":{"id":"2804508","name":"Nossa Senhora da Glória"},"geometry":{"type":"Polygon","coordinates":[[[-37.41,-10.064],[-37.382,-10.087],[-37.382,-10.087],[-37.348,-10.115],[-37.331,-10.128],[-37.345,-10.156],[-37.314,-10.153],[-37.332,-10.21],[-37.336,-10.211],[-37.361,-10.215],[-37.384,-10.218],[-37.391,-10.238],[-37.398,-10.255],[-37.408,-10.245],[-37.403,-10.292],[-37.408,-10.291],[-37.41,-10.305],[-37.415,-10.303],[-37.418,-10.306],[-37.42,-10.306],[-37.42,-10.303],[-37.427,-10.302],[-37.428,-10.308],[-37.436,-10.304],[-37.435,-10.296],[-37.441,-10.295],[-37.442,-10.297],[-37.448,-10.294],[-37.446,-10.289],[-37.451,-10.292],[-37.459,-10.288],[-37.462,-10.285],[-37.459,-10.284],[-37.459,-10.279],[-37.462,-10.278],[-37.465,-10.283],[-37.468,-10.282],[-37.47,-10.29],[-37.472,-10.288],[-37.483,-10.295],[-37.482,-10.282],[-37.486,-10.286],[-37.488,-10.283],[-37.498,-10.295],[-37.499,-10.292],[-37.505,-10.294],[-37.507,-10.29],[-37.511,-10.296],[-37.516,-10.288],[-37.516,-10.288],[-37.523,-10.289],[-37.525,-10.281],[-37.531,-10.282],[-37.539,-10.272],[-37.545,-10.269],[-37.541,-10.268],[-37.543,-10.264],[-37.539,-10.265],[-37.539,-10.258],[-37.553,-10.258],[-37.551,-10.262],[-37.556,-10.266],[-37.557,-10.259],[-37.561,-10.261],[-37.568,-10.256],[-37.569,-10.247],[-37.573,-10.249],[-37.579,-10.247],[-37.581,-10.24],[-37.591,-10.245],[-37.594,-10.252],[-37.596,-10.25],[-37.601,-10.247],[-37.6,-10.243],[-37.606,-10.24],[-37.613,-10.249],[-37.616,-10.24],[-37.623,-10.244],[-37.648,-10.225],[-37.653,-10.218],[-37.673,-10.206],[-37.681,-10.208],[-37.681,-10.208],[-37.689,-10.204],[-37.695,-10.207],[-37.701,-10.201],[-37.7,-10.193],[-37.717,-10.187],[-37.755,-10.2],[-37.765,-10.196],[-37.78,-10.187],[-37.783,-10.18],[-37.774,-10.144],[-37.777,-10.133],[-37.783,-10.095],[-37.746,-10.112],[-37.74,-10.109],[-37.732,-10.111],[-37.723,-10.119],[-37.699,-10.126],[-37.696,-10.128],[-37.689,-10.123],[-37.679,-10.123],[-37.672,-10.13],[-37.667,-10.126],[-37.661,-10.129],[-37.659,-10.123],[-37.653,-10.121],[-37.645,-10.111],[-37.637,-10.11],[-37.63,-10.102],[-37.621,-10.106],[-37.614,-10.095],[-37.603,-10.103],[-37.598,-10.094],[-37.594,-10.097],[-37.589,-10.09],[-37.583,-10.091],[-37.585,-10.095],[-37.567,-10.108],[-37.563,-10.107],[-37.558,-10.122],[-37.551,-10.112],[-37.551,-10.112],[-37.542,-10.115],[-37.538,-10.11],[-37.531,-10.113],[-37.524,-10.11],[-37.523,-10.104],[-37.519,-10.109],[-37.513,-10.101],[-37.505,-10.104],[-37.495,-10.097],[-37.49,-10.102],[-37.484,-10.092],[-37.48,-10.089],[-37.475,-10.096],[-37.464,-10.092],[-37.459,-10.096],[-37.46,-10.102],[-37.449,-10.105],[-37.448,-10.105],[-37.436,-10.101],[-37.44,-10.091],[-37.433,-10.085],[-37.44,-10.085],[-37.442,-10.076],[-37.435,-10.072],[-37.428,-10.076],[-37.43,-10.064],[-37.414,-10.077],[-37.412,-10.069],[-37.42,-10.068],[-37.42,-10.062],[-37.41,-10.064]]]}},{"type":"Feature","properties":{"id":"2804607","name":"Nossa Senhora das Dores"},"geometry":{"type":"Polygon","coordinates":[[[-37.235,-10.301],[-37.235,-10.305],[-37.249,-10.318],[-37.239,-10.341],[-37.239,-10.359],[-37.232,-10.363],[-37.228,-10.376],[-37.228,-10.376],[-37.225,-10.38],[-37.223,-10.381],[-37.211,-10.392],[-37.211,-10.393],[-37.21,-10.395],[-37.207,-10.402],[-37.19,-10.406],[-37.181,-10.416],[-37.175,-10.415],[-37.169,-10.418],[-37.162,-10.411],[-37.157,-10.411],[-37.151,-10.414],[-37.152,-10.418],[-37.148,-10.416],[-37.144,-10.42],[-37.132,-10.406],[-37.128,-10.411],[-37.121,-10.405],[-37.118,-10.409],[-37.118,-10.41],[-37.114,-10.412],[-37.111,-10.414],[-37.112,-10.425],[-37.113,-10.433],[-37.118,-10.441],[-37.135,-10.452],[-37.138,-10.469],[-37.138,-10.47],[-37.139,-10.507],[-37.156,-10.529],[-37.16,-10.534],[-37.16,-10.534],[-37.18,-10.562],[-37.178,-10.565],[-37.177,-10.565],[-37.172,-10.571],[-37.175,-10.579],[-37.194,-10.592],[-37.207,-10.607],[-37.203,-10.614],[-37.205,-10.624],[-37.211,-10.618],[-37.218,-10.616],[-37.219,-10.611],[-37.229,-10.608],[-37.231,-10.604],[-37.236,-10.604],[-37.249,-10.595],[-37.263,-10.577],[-37.272,-10.578],[-37.284,-10.574],[-37.294,-10.576],[-37.304,-10.574],[-37.311,-10.565],[-37.314,-10.558],[-37.311,-10.548],[-37.318,-10.547],[-37.321,-10.54],[-37.322,-10.538],[-37.326,-10.532],[-37.326,-10.531],[-37.336,-10.52],[-37.336,-10.519],[-37.359,-10.483],[-37.349,-10.491],[-37.302,-10.475],[-37.301,-10.475],[-37.275,-10.465],[-37.281,-10.462],[-37.29,-10.467],[-37.292,-10.458],[-37.287,-10.454],[-37.29,-10.448],[-37.294,-10.449],[-37.295,-10.441],[-37.292,-10.438],[-37.294,-10.433],[-37.302,-10.436],[-37.308,-10.425],[-37.318,-10.434],[-37.325,-10.433],[-37.331,-10.431],[-37.334,-10.427],[-37.332,-10.424],[-37.324,-10.421],[-37.332,-10.417],[-37.329,-10.413],[-37.333,-10.407],[-37.335,-10.4],[-37.348,-10.4],[-37.341,-10.384],[-37.345,-10.38],[-37.343,-10.378],[-37.334,-10.379],[-37.326,-10.375],[-37.326,-10.366],[-37.316,-10.359],[-37.318,-10.351],[-37.309,-10.347],[-37.301,-10.333],[-37.302,-10.328],[-37.297,-10.325],[-37.295,-10.32],[-37.287,-10.319],[-37.286,-10.314],[-37.28,-10.311],[-37.27,-10.314],[-37.273,-10.309],[-37.274,-10.306],[-37.265,-10.303],[-37.254,-10.305],[-37.244,-10.298],[-37.237,-10.3],[-37.235,-10.301]]]}},{"type":"Feature","properties":{"id":"2804706","name":"Nossa Senhora de Lourdes"},"geometry":{"type":"Polygon","coordinates":[[[-37.028,-10.121],[-37.032,-10.132],[-37.04,-10.137],[-37.04,-10.132],[-37.044,-10.133],[-37.047,-10.124],[-37.055,-10.127],[-37.065,-10.136],[-37.068,-10.092],[-37.065,-10.078],[-37.064,-10.072],[-37.062,-10.061],[-37.061,-10.061],[-37.027,-10.054],[-37.006,-10.037],[-36.965,-10.026],[-36.958,-10.024],[-36.956,-10.023],[-36.959,-10.05],[-36.954,-10.071],[-36.985,-10.081],[-36.99,-10.083],[-37.008,-10.104],[-37.016,-10.11],[-37.028,-10.121]]]}},{"type":"Feature","properties":{"id":"2804805","name":"Nossa Senhora do Socorro"},"geometry":{"type":"Polygon","coordinates":[[[-37.045,-10.825],[-37.031,-10.84],[-37.029,-10.855],[-37.035,-10.868],[-37.044,-10.865],[-37.057,-10.865],[-37.068,-10.877],[-37.074,-10.864],[-37.083,-10.863],[-37.097,-10.875],[-37.104,-10.877],[-37.097,-10.885],[-37.104,-10.886],[-37.106,-10.89],[-37.102,-10.896],[-37.107,-10.904],[-37.1,-10.919],[-37.11,-10.915],[-37.148,-10.929],[-37.154,-10.924],[-37.162,-10.925],[-37.166,-10.917],[-37.167,-10.916],[-37.172,-10.913],[-37.172,-10.905],[-37.177,-10.9],[-37.185,-10.897],[-37.191,-10.887],[-37.198,-10.89],[-37.206,-10.877],[-37.219,-10.878],[-37.236,-10.869],[-37.246,-10.865],[-37.251,-10.855],[-37.26,-10.853],[-37.267,-10.847],[-37.272,-10.852],[-37.291,-10.852],[-37.3,-10.847],[-37.309,-10.833],[-37.318,-10.832],[-37.318,-10.832],[-37.317,-10.831],[-37.243,-10.834],[-37.231,-10.836],[-37.215,-10.848],[-37.206,-10.848],[-37.19,-10.853],[-37.19,-10.853],[-37.18,-10.855],[-37.174,-10.842],[-37.159,-10.836],[-37.158,-10.832],[-37.154,-10.833],[-37.137,-10.835],[-37.125,-10.834],[-37.111,-10.829],[-37.104,-10.819],[-37.093,-10.823],[-37.065,-10.823],[-37.045,-10.825]]]}},{"type":"Feature","properties":{"id":"2804904","name":"Pacatuba"},"geometry":{"type":"Polygon","coordinates":[[[-36.62,-10.589],[-36.673,-10.628],[-36.68,-10.625],[-36.686,-10.623],[-36.701,-10.616],[-36.707,-10.613],[-36.75,-10.594],[-36.733,-10.531],[-36.731,-10.522],[-36.714,-10.459],[-36.712,-10.452],[-36.702,-10.405],[-36.649,-10.399],[-36.617,-10.41],[-36.612,-10.411],[-36.598,-10.415],[-36.608,-10.42],[-36.607,-10.434],[-36.605,-10.444],[-36.605,-10.447],[-36.6,-10.496],[-36.585,-10.499],[-36.499,-10.513],[-36.484,-10.528],[-36.497,-10.538],[-36.6,-10.58],[-36.62,-10.589]]]}},{"type":"Feature","properties":{"id":"2805000","name":"Pedra Mole"},"geometry":{"type":"Polygon","coordinates":[[[-37.641,-10.604],[-37.65,-10.617],[-37.656,-10.647],[-37.662,-10.654],[-37.669,-10.674],[-37.663,-10.681],[-37.664,-10.691],[-37.662,-10.703],[-37.666,-10.707],[-37.662,-10.712],[-37.664,-10.716],[-37.669,-10.708],[-37.678,-10.714],[-37.684,-10.708],[-37.674,-10.702],[-37.677,-10.696],[-37.686,-10.692],[-37.684,-10.684],[-37.686,-10.682],[-37.694,-10.683],[-37.703,-10.677],[-37.704,-10.669],[-37.71,-10.671],[-37.714,-10.666],[-37.698,-10.647],[-37.693,-10.639],[-37.696,-10.639],[-37.702,-10.641],[-37.706,-10.633],[-37.715,-10.634],[-37.719,-10.624],[-37.712,-10.609],[-37.711,-10.609],[-37.705,-10.606],[-37.705,-10.592],[-37.696,-10.582],[-37.692,-10.558],[-37.688,-10.533],[-37.675,-10.553],[-37.649,-10.591],[-37.641,-10.604]]]}},{"type":"Feature","properties":{"id":"2805109","name":"Pedrinhas"},"geometry":{"type":"Polygon","coordinates":[[[-37.683,-11.18],[-37.679,-11.19],[-37.67,-11.183],[-37.669,-11.183],[-37.641,-11.198],[-37.64,-11.198],[-37.609,-11.202],[-37.606,-11.2],[-37.606,-11.2],[-37.596,-11.203],[-37.597,-11.214],[-37.608,-11.217],[-37.615,-11.215],[-37.635,-11.22],[-37.642,-11.217],[-37.651,-11.22],[-37.66,-11.219],[-37.672,-11.238],[-37.677,-11.235],[-37.683,-11.221],[-37.69,-11.204],[-37.696,-11.205],[-37.697,-11.198],[-37.705,-11.193],[-37.705,-11.192],[-37.691,-11.171],[-37.683,-11.18]]]}},{"type":"Feature","properties":{"id":"2805208","name":"Pinhão"},"geometry":{"type":"Polygon","coordinates":[[[-37.773,-10.506],[-37.731,-10.516],[-37.725,-10.509],[-37.688,-10.533],[-37.692,-10.558],[-37.696,-10.582],[-37.705,-10.592],[-37.705,-10.606],[-37.711,-10.609],[-37.712,-10.609],[-37.719,-10.624],[-37.715,-10.634],[-37.706,-10.633],[-37.717,-10.645],[-37.724,-10.64],[-37.722,-10.633],[-37.731,-10.63],[-37.74,-10.632],[-37.75,-10.621],[-37.755,-10.623],[-37.767,-10.618],[-37.767,-10.605],[-37.771,-10.603],[-37.785,-10.601],[-37.8,-10.591],[-37.807,-10.6],[-37.815,-10.595],[-37.818,-10.585],[-37.83,-10.584],[-37.83,-10.584],[-37.826,-10.58],[-37.831,-10.579],[-37.83,-10.573],[-37.835,-10.571],[-37.833,-10.56],[-37.839,-10.556],[-37.84,-10.549],[-37.831,-10.551],[-37.828,-10.547],[-37.829,-10.541],[-37.823,-10.538],[-37.819,-10.539],[-37.822,-10.531],[-37.815,-10.517],[-37.809,-10.513],[-37.797,-10.509],[-37.779,-10.511],[-37.773,-10.506]]]}},{"type":"Feature","properties":{"id":"2805307","name":"Pirambu"},"geometry":{"type":"Polygon","coordinates":[[[-36.703,-10.642],[-36.734,-10.655],[-36.808,-10.704],[-36.844,-10.735],[-36.854,-10.743],[-36.861,-10.742],[-36.869,-10.744],[-36.872,-10.741],[-36.869,-10.737],[-36.872,-10.735],[-36.868,-10.732],[-36.871,-10.724],[-36.871,-10.707],[-36.875,-10.708],[-36.88,-10.695],[-36.886,-10.697],[-36.888,-10.695],[-36.89,-10.698],[-36.884,-10.7],[-36.892,-10.701],[-36.896,-10.705],[-36.901,-10.702],[-36.9,-10.693],[-36.909,-10.678],[-36.923,-10.676],[-36.91,-10.667],[-36.906,-10.664],[-36.903,-10.662],[-36.899,-10.663],[-36.893,-10.66],[-36.853,-10.629],[-36.84,-10.619],[-36.783,-10.575],[-36.765,-10.581],[-36.755,-10.594],[-36.75,-10.594],[-36.707,-10.613],[-36.701,-10.616],[-36.686,-10.623],[-36.68,-10.625],[-36.673,-10.628],[-36.703,-10.642]]]}},{"type":"Feature","properties":{"id":"2805406","name":"Poço Redondo"},"geometry":{"type":"Polygon","coordinates":[[[-37.546,-9.874],[-37.564,-9.902],[-37.567,-9.907],[-37.603,-9.962],[-37.603,-9.962],[-37.608,-9.969],[-37.619,-9.974],[-37.631,-9.974],[-37.641,-9.979],[-37.653,-9.994],[-37.664,-9.998],[-37.666,-10.015],[-37.673,-10.025],[-37.685,-10.028],[-37.692,-10.02],[-37.698,-10.021],[-37.702,-10.014],[-37.722,-10.028],[-37.731,-10.024],[-37.731,-10.021],[-37.738,-10.025],[-37.738,-10.029],[-37.754,-10.026],[-37.775,-10.033],[-37.808,-10.032],[-37.824,-10.035],[-37.824,-10.034],[-37.823,-10.015],[-37.833,-9.998],[-37.849,-9.993],[-37.875,-9.978],[-37.881,-9.98],[-37.915,-9.975],[-37.922,-9.973],[-37.927,-9.965],[-37.936,-9.966],[-37.926,-9.953],[-37.925,-9.943],[-37.92,-9.935],[-37.9,-9.92],[-37.897,-9.913],[-37.887,-9.913],[-37.882,-9.91],[-37.868,-9.898],[-37.869,-9.866],[-37.868,-9.854],[-37.864,-9.847],[-37.869,-9.841],[-37.859,-9.801],[-37.854,-9.796],[-37.854,-9.784],[-37.854,-9.783],[-37.841,-9.762],[-37.843,-9.748],[-37.834,-9.71],[-37.831,-9.703],[-37.823,-9.701],[-37.821,-9.701],[-37.782,-9.692],[-37.781,-9.692],[-37.749,-9.684],[-37.666,-9.666],[-37.66,-9.677],[-37.656,-9.683],[-37.645,-9.691],[-37.603,-9.718],[-37.602,-9.719],[-37.581,-9.734],[-37.572,-9.738],[-37.553,-9.74],[-37.527,-9.744],[-37.524,-9.744],[-37.473,-9.746],[-37.467,-9.749],[-37.507,-9.814],[-37.527,-9.846],[-37.528,-9.846],[-37.529,-9.849],[-37.529,-9.849],[-37.546,-9.874]]]}},{"type":"Feature","properties":{"id":"2805505","name":"Poço Verde"},"geometry":{"type":"Polygon","coordinates":[[[-38.034,-10.712],[-38.021,-10.73],[-38.012,-10.735],[-37.99,-10.757],[-37.985,-10.759],[-37.974,-10.755],[-37.972,-10.754],[-37.971,-10.768],[-37.971,-10.769],[-37.97,-10.794],[-37.97,-10.825],[-38.026,-10.815],[-38.045,-10.818],[-38.074,-10.818],[-38.078,-10.822],[-38.086,-10.822],[-38.086,-10.825],[-38.097,-10.83],[-38.102,-10.83],[-38.108,-10.836],[-38.114,-10.834],[-38.118,-10.843],[-38.125,-10.848],[-38.127,-10.857],[-38.119,-10.869],[-38.129,-10.891],[-38.135,-10.894],[-38.139,-10.9],[-38.157,-10.9],[-38.162,-10.911],[-38.164,-10.921],[-38.17,-10.926],[-38.167,-10.94],[-38.181,-10.944],[-38.201,-10.938],[-38.202,-10.935],[-38.199,-10.927],[-38.205,-10.922],[-38.211,-10.931],[-38.215,-10.923],[-38.226,-10.916],[-38.23,-10.894],[-38.236,-10.881],[-38.237,-10.859],[-38.232,-10.839],[-38.239,-10.826],[-38.243,-10.828],[-38.245,-10.823],[-38.235,-10.812],[-38.236,-10.808],[-38.236,-10.796],[-38.233,-10.793],[-38.218,-10.782],[-38.21,-10.756],[-38.21,-10.756],[-38.217,-10.738],[-38.218,-10.736],[-38.215,-10.725],[-38.21,-10.717],[-38.199,-10.711],[-38.186,-10.707],[-38.175,-10.706],[-38.17,-10.712],[-38.156,-10.712],[-38.145,-10.717],[-38.123,-10.718],[-38.112,-10.713],[-38.1,-10.712],[-38.067,-10.715],[-38.049,-10.706],[-38.047,-10.693],[-38.042,-10.7],[-38.04,-10.702],[-38.034,-10.712]]]}},{"type":"Feature","properties":{"id":"2805604","name":"Porto da Folha"},"geometry":{"type":"Polygon","coordinates":[[[-37.231,-9.912],[-37.234,-9.957],[-37.257,-9.958],[-37.261,-9.965],[-37.268,-9.961],[-37.273,-9.965],[-37.266,-9.993],[-37.285,-9.988],[-37.288,-9.993],[-37.286,-10.009],[-37.294,-10.015],[-37.302,-10.002],[-37.308,-9.999],[-37.313,-9.999],[-37.316,-10.008],[-37.325,-10.013],[-37.332,-10.015],[-37.328,-10.01],[-37.334,-10.004],[-37.333,-9.993],[-37.339,-9.986],[-37.344,-9.992],[-37.343,-9.999],[-37.349,-10.0],[-37.352,-9.994],[-37.355,-10.0],[-37.354,-10.004],[-37.348,-10.004],[-37.354,-10.015],[-37.36,-10.013],[-37.365,-10.015],[-37.364,-10.01],[-37.367,-10.007],[-37.379,-10.01],[-37.373,-10.017],[-37.373,-10.021],[-37.38,-10.021],[-37.376,-10.026],[-37.385,-10.03],[-37.383,-10.038],[-37.392,-10.04],[-37.394,-10.049],[-37.4,-10.045],[-37.401,-10.052],[-37.409,-10.052],[-37.42,-10.062],[-37.428,-10.055],[-37.47,-10.022],[-37.488,-10.017],[-37.524,-10.009],[-37.543,-10.003],[-37.563,-9.999],[-37.582,-9.998],[-37.587,-10.012],[-37.59,-10.016],[-37.595,-10.016],[-37.597,-10.024],[-37.606,-10.019],[-37.614,-10.026],[-37.626,-10.026],[-37.629,-10.022],[-37.633,-10.024],[-37.638,-10.019],[-37.645,-10.022],[-37.656,-10.014],[-37.666,-10.015],[-37.664,-9.998],[-37.653,-9.994],[-37.641,-9.979],[-37.631,-9.974],[-37.619,-9.974],[-37.608,-9.969],[-37.603,-9.962],[-37.603,-9.962],[-37.567,-9.907],[-37.564,-9.902],[-37.546,-9.874],[-37.529,-9.849],[-37.529,-9.849],[-37.528,-9.846],[-37.527,-9.846],[-37.507,-9.814],[-37.467,-9.749],[-37.45,-9.753],[-37.417,-9.763],[-37.409,-9.768],[-37.397,-9.777],[-37.373,-9.784],[-37.362,-9.786],[-37.348,-9.793],[-37.34,-9.8],[-37.321,-9.82],[-37.311,-9.824],[-37.297,-9.827],[-37.285,-9.831],[-37.264,-9.85],[-37.257,-9.86],[-37.247,-9.884],[-37.235,-9.896],[-37.226,-9.899],[-37.231,-9.912]]]}},{"type":"Feature","properties":{"id":"2805703","name":"Propriá"},"geometry":{"type":"Polygon","coordinates":[[[-36.85,-10.186],[-36.848,-10.188],[-36.846,-10.186],[-36.845,-10.189],[-36.835,-10.204],[-36.819,-10.215],[-36.819,-10.215],[-36.808,-10.22],[-36.777,-10.226],[-36.756,-10.231],[-36.75,-10.237],[-36.756,-10.246],[-36.744,-10.252],[-36.736,-10.252],[-36.72,-10.265],[-36.702,-10.271],[-36.707,-10.278],[-36.705,-10.282],[-36.712,-10.282],[-36.732,-10.279],[-36.736,-10.282],[-36.74,-10.272],[-36.749,-10.261],[-36.756,-10.261],[-36.759,-10.254],[-36.777,-10.265],[-36.787,-10.262],[-36.795,-10.275],[-36.799,-10.279],[-36.8,-10.279],[-36.802,-10.284],[-36.811,-10.297],[-36.819,-10.297],[-36.836,-10.29],[-36.837,-10.281],[-36.842,-10.277],[-36.839,-10.27],[-36.844,-10.261],[-36.848,-10.24],[-36.851,-10.238],[-36.867,-10.228],[-36.867,-10.205],[-36.86,-10.185],[-36.856,-10.176],[-36.85,-10.186]]]}},{"type":"Feature","properties":{"id":"2805802","name":"Riachão do Dantas"},"geometry":{"type":"Polygon","coordinates":[[[-37.877,-10.864],[-37.866,-10.898],[-37.875,-10.921],[-37.851,-10.934],[-37.846,-10.934],[-37.84,-10.947],[-37.834,-10.951],[-37.839,-10.955],[-37.838,-10.964],[-37.839,-10.97],[-37.832,-10.98],[-37.837,-10.988],[-37.825,-10.99],[-37.822,-10.996],[-37.822,-11.005],[-37.816,-11.007],[-37.812,-11.003],[-37.809,-11.011],[-37.798,-11.012],[-37.793,-11.019],[-37.786,-11.008],[-37.781,-11.011],[-37.776,-11.006],[-37.774,-11.017],[-37.768,-11.017],[-37.766,-11.01],[-37.761,-11.011],[-37.754,-11.004],[-37.749,-11.01],[-37.741,-11.011],[-37.74,-11.002],[-37.745,-10.997],[-37.743,-10.99],[-37.725,-10.993],[-37.719,-10.997],[-37.713,-11.0],[-37.692,-11.026],[-37.685,-11.027],[-37.675,-11.022],[-37.67,-11.031],[-37.656,-11.04],[-37.651,-11.047],[-37.644,-11.046],[-37.634,-11.064],[-37.622,-11.067],[-37.615,-11.07],[-37.616,-11.072],[-37.612,-11.078],[-37.618,-11.083],[-37.624,-11.088],[-37.634,-11.082],[-37.649,-11.109],[-37.646,-11.126],[-37.672,-11.148],[-37.672,-11.148],[-37.695,-11.166],[-37.707,-11.175],[-37.712,-11.169],[-37.719,-11.162],[-37.728,-11.165],[-37.738,-11.151],[-37.743,-11.155],[-37.751,-11.149],[-37.761,-11.141],[-37.765,-11.142],[-37.775,-11.133],[-37.784,-11.132],[-37.785,-11.132],[-37.793,-11.133],[-37.843,-11.109],[-37.867,-11.08],[-37.895,-11.045],[-37.905,-11.034],[-37.915,-11.025],[-37.93,-11.011],[-37.932,-11.006],[-37.939,-11.004],[-37.946,-10.997],[-37.949,-10.986],[-37.945,-10.981],[-37.941,-10.985],[-37.933,-10.973],[-37.944,-10.946],[-37.957,-10.934],[-37.958,-10.927],[-37.973,-10.88],[-37.939,-10.888],[-37.938,-10.882],[-37.932,-10.881],[-37.923,-10.879],[-37.897,-10.872],[-37.877,-10.864],[-37.877,-10.864]]]}},{"type":"Feature","properties":{"id":"2805901","name":"Riachuelo"},"geometry":{"type":"Polygon","coordinates":[[[-37.207,-10.706],[-37.202,-10.71],[-37.203,-10.716],[-37.2,-10.72],[-37.207,-10.725],[-37.194,-10.728],[-37.187,-10.725],[-37.185,-10.724],[-37.181,-10.718],[-37.175,-10.723],[-37.168,-10.727],[-37.171,-10.734],[-37.161,-10.736],[-37.164,-10.743],[-37.161,-10.751],[-37.168,-10.753],[-37.215,-10.766],[-37.221,-10.759],[-37.229,-10.761],[-37.245,-10.778],[-37.273,-10.752],[-37.272,-10.747],[-37.282,-10.738],[-37.282,-10.729],[-37.28,-10.726],[-37.283,-10.721],[-37.276,-10.711],[-37.272,-10.715],[-37.265,-10.713],[-37.265,-10.708],[-37.259,-10.702],[-37.251,-10.705],[-37.25,-10.709],[-37.245,-10.706],[-37.239,-10.708],[-37.237,-10.704],[-37.233,-10.704],[-37.23,-10.703],[-37.227,-10.708],[-37.224,-10.704],[-37.232,-10.696],[-37.228,-10.684],[-37.231,-10.674],[-37.229,-10.674],[-37.199,-10.677],[-37.2,-10.689],[-37.197,-10.692],[-37.203,-10.698],[-37.207,-10.706]]]}},{"type":"Feature","properties":{"id":"2806008","name":"Ribeirópolis"},"geometry":{"type":"Polygon","coordinates":[[[-37.368,-10.452],[-37.369,-10.459],[-37.366,-10.467],[-37.359,-10.483],[-37.336,-10.519],[-37.336,-10.52],[-37.326,-10.531],[-37.326,-10.532],[-37.322,-10.538],[-37.321,-10.54],[-37.325,-10.541],[-37.334,-10.543],[-37.337,-10.539],[-37.346,-10.539],[-37.364,-10.549],[-37.364,-10.559],[-37.373,-10.563],[-37.395,-10.582],[-37.412,-10.578],[-37.422,-10.576],[-37.442,-10.585],[-37.462,-10.595],[-37.472,-10.57],[-37.474,-10.566],[-37.474,-10.566],[-37.499,-10.53],[-37.5,-10.528],[-37.506,-10.515],[-37.511,-10.506],[-37.547,-10.462],[-37.521,-10.461],[-37.492,-10.46],[-37.484,-10.46],[-37.474,-10.459],[-37.421,-10.402],[-37.411,-10.416],[-37.372,-10.447],[-37.368,-10.452]]]}},{"type":"Feature","properties":{"id":"2806107","name":"Rosário do Catete"},"geometry":{"type":"Polygon","coordinates":[[[-37.011,-10.681],[-37.016,-10.684],[-37.005,-10.696],[-36.992,-10.703],[-36.98,-10.7],[-36.975,-10.701],[-36.97,-10.706],[-36.961,-10.705],[-36.95,-10.713],[-36.979,-10.739],[-36.995,-10.731],[-37.011,-10.733],[-37.017,-10.722],[-37.068,-10.747],[-37.07,-10.749],[-37.062,-10.718],[-37.053,-10.702],[-37.059,-10.692],[-37.069,-10.691],[-37.075,-10.684],[-37.085,-10.686],[-37.089,-10.683],[-37.093,-10.673],[-37.09,-10.655],[-37.089,-10.648],[-37.092,-10.641],[-37.084,-10.636],[-37.077,-10.632],[-37.076,-10.632],[-37.075,-10.631],[-37.073,-10.615],[-37.036,-10.625],[-37.011,-10.64],[-37.011,-10.675],[-37.011,-10.681]]]}},{"type":"Feature","properties":{"id":"2806206","name":"Salgado"},"geometry":{"type":"Polygon","coordinates":[[[-37.459,-11.146],[-37.488,-11.153],[-37.499,-11.155],[-37.501,-11.156],[-37.547,-11.166],[-37.555,-11.154],[-37.544,-11.154],[-37.546,-11.148],[-37.541,-11.143],[-37.548,-11.142],[-37.553,-11.141],[-37.539,-11.096],[-37.528,-11.053],[-37.531,-10.996],[-37.53,-10.993],[-37.53,-10.993],[-37.528,-10.987],[-37.519,-10.96],[-37.518,-10.96],[-37.506,-10.964],[-37.456,-10.977],[-37.455,-10.977],[-37.439,-10.982],[-37.434,-10.988],[-37.428,-10.989],[-37.426,-11.001],[-37.413,-11.008],[-37.405,-11.028],[-37.404,-11.034],[-37.404,-11.035],[-37.389,-11.053],[-37.422,-11.076],[-37.438,-11.087],[-37.438,-11.097],[-37.43,-11.105],[-37.432,-11.11],[-37.437,-11.111],[-37.439,-11.116],[-37.435,-11.117],[-37.437,-11.126],[-37.459,-11.146]]]}},{"type":"Feature","properties":{"id":"2806305","name":"Santa Luzia do Itanhy"},"geometry":{"type":"Polygon","coordinates":[[[-37.604,-11.342],[-37.601,-11.343],[-37.59,-11.326],[-37.581,-11.326],[-37.572,-11.323],[-37.549,-11.305],[-37.53,-11.305],[-37.523,-11.3],[-37.502,-11.304],[-37.488,-11.303],[-37.462,-11.311],[-37.452,-11.301],[-37.452,-11.301],[-37.446,-11.293],[-37.426,-11.307],[-37.422,-11.302],[-37.407,-11.301],[-37.399,-11.313],[-37.387,-11.319],[-37.377,-11.337],[-37.388,-11.355],[-37.388,-11.369],[-37.406,-11.393],[-37.41,-11.41],[-37.408,-11.423],[-37.408,-11.423],[-37.414,-11.428],[-37.422,-11.43],[-37.432,-11.424],[-37.441,-11.425],[-37.447,-11.441],[-37.461,-11.444],[-37.464,-11.451],[-37.469,-11.446],[-37.472,-11.447],[-37.47,-11.45],[-37.48,-11.45],[-37.485,-11.443],[-37.493,-11.443],[-37.494,-11.443],[-37.503,-11.428],[-37.508,-11.414],[-37.525,-11.423],[-37.535,-11.416],[-37.559,-11.415],[-37.564,-11.411],[-37.57,-11.408],[-37.572,-11.406],[-37.579,-11.402],[-37.579,-11.402],[-37.602,-11.388],[-37.602,-11.388],[-37.624,-11.369],[-37.625,-11.368],[-37.625,-11.367],[-37.639,-11.356],[-37.639,-11.355],[-37.674,-11.324],[-37.675,-11.323],[-37.683,-11.316],[-37.692,-11.308],[-37.663,-11.29],[-37.618,-11.329],[-37.609,-11.338],[-37.607,-11.339],[-37.604,-11.342]]]}},{"type":"Feature","properties":{"id":"2806404","name":"Santana do São Francisco"},"geometry":{"type":"Polygon","coordinates":[[[-36.601,-10.306],[-36.653,-10.321],[-36.681,-10.273],[-36.679,-10.269],[-36.658,-10.265],[-36.644,-10.252],[-36.632,-10.253],[-36.631,-10.254],[-36.625,-10.256],[-36.622,-10.259],[-36.612,-10.271],[-36.599,-10.281],[-36.595,-10.284],[-36.591,-10.287],[-36.589,-10.301],[-36.601,-10.306]]]}},{"type":"Feature","properties":{"id":"2806503","name":"Santa Rosa de Lima"},"geometry":{"type":"Polygon","coordinates":[[[-37.265,-10.586],[-37.251,-10.595],[-37.249,-10.595],[-37.236,-10.604],[-37.231,-10.604],[-37.229,-10.608],[-37.219,-10.611],[-37.218,-10.616],[-37.211,-10.618],[-37.205,-10.624],[-37.203,-10.628],[-37.193,-10.627],[-37.185,-10.64],[-37.181,-10.641],[-37.184,-10.649],[-37.181,-10.655],[-37.189,-10.658],[-37.19,-10.664],[-37.194,-10.668],[-37.191,-10.669],[-37.193,-10.676],[-37.199,-10.677],[-37.229,-10.674],[-37.231,-10.674],[-37.239,-10.665],[-37.247,-10.661],[-37.247,-10.651],[-37.26,-10.649],[-37.269,-10.635],[-37.28,-10.633],[-37.281,-10.62],[-37.291,-10.61],[-37.295,-10.61],[-37.296,-10.601],[-37.293,-10.594],[-37.287,-10.594],[-37.281,-10.587],[-37.265,-10.586]]]}},{"type":"Feature","properties":{"id":"2806602","name":"Santo Amaro das Brotas"},"geometry":{"type":"Polygon","coordinates":[[[-36.917,-10.686],[-36.919,-10.701],[-36.915,-10.7],[-36.912,-10.705],[-36.912,-10.7],[-36.905,-10.697],[-36.903,-10.692],[-36.9,-10.693],[-36.901,-10.702],[-36.896,-10.705],[-36.892,-10.701],[-36.884,-10.7],[-36.89,-10.698],[-36.888,-10.695],[-36.886,-10.697],[-36.88,-10.695],[-36.875,-10.708],[-36.871,-10.707],[-36.871,-10.724],[-36.868,-10.732],[-36.872,-10.735],[-36.869,-10.737],[-36.872,-10.741],[-36.876,-10.739],[-36.884,-10.747],[-36.899,-10.772],[-36.926,-10.788],[-36.927,-10.787],[-36.929,-10.79],[-36.937,-10.787],[-36.939,-10.796],[-36.947,-10.798],[-36.957,-10.809],[-36.96,-10.809],[-36.96,-10.817],[-36.965,-10.819],[-36.969,-10.833],[-36.979,-10.832],[-36.982,-10.835],[-36.984,-10.832],[-36.988,-10.836],[-36.981,-10.843],[-36.983,-10.849],[-36.989,-10.852],[-36.995,-10.847],[-36.997,-10.853],[-36.995,-10.857],[-36.998,-10.86],[-37.006,-10.859],[-37.009,-10.864],[-37.015,-10.864],[-37.016,-10.875],[-37.024,-10.877],[-37.028,-10.885],[-37.039,-10.884],[-37.035,-10.868],[-37.029,-10.855],[-37.031,-10.84],[-37.045,-10.825],[-37.065,-10.823],[-37.075,-10.807],[-37.087,-10.798],[-37.088,-10.783],[-37.08,-10.778],[-37.075,-10.779],[-37.069,-10.769],[-37.07,-10.751],[-37.07,-10.749],[-37.068,-10.747],[-37.017,-10.722],[-37.011,-10.733],[-36.995,-10.731],[-36.979,-10.739],[-36.95,-10.713],[-36.949,-10.712],[-36.935,-10.696],[-36.917,-10.686]]]}},{"type":"Feature","properties":{"id":"2806701","name":"São Cristóvão"},"geometry":{"type":"Polygon","coordinates":[[[-37.291,-10.852],[-37.272,-10.852],[-37.267,-10.847],[-37.26,-10.853],[-37.251,-10.855],[-37.246,-10.865],[-37.236,-10.869],[-37.219,-10.878],[-37.206,-10.877],[-37.198,-10.89],[-37.191,-10.887],[-37.185,-10.897],[-37.177,-10.9],[-37.172,-10.905],[-37.172,-10.913],[-37.167,-10.916],[-37.166,-10.917],[-37.162,-10.925],[-37.154,-10.924],[-37.148,-10.929],[-37.11,-10.915],[-37.1,-10.919],[-37.091,-10.941],[-37.099,-10.962],[-37.102,-10.969],[-37.138,-11.063],[-37.144,-11.058],[-37.156,-11.054],[-37.165,-11.066],[-37.174,-11.077],[-37.172,-11.083],[-37.163,-11.092],[-37.166,-11.105],[-37.183,-11.093],[-37.204,-11.085],[-37.219,-11.076],[-37.224,-11.065],[-37.227,-11.04],[-37.253,-11.034],[-37.285,-11.027],[-37.285,-11.023],[-37.295,-11.017],[-37.299,-11.01],[-37.303,-10.998],[-37.303,-10.998],[-37.305,-10.993],[-37.306,-10.986],[-37.329,-10.977],[-37.325,-10.971],[-37.333,-10.964],[-37.335,-10.952],[-37.338,-10.946],[-37.331,-10.939],[-37.329,-10.921],[-37.318,-10.834],[-37.318,-10.832],[-37.309,-10.833],[-37.3,-10.847],[-37.291,-10.852]]]}},{"type":"Feature","properties":{"id":"2806800","name":"São Domingos"},"geometry":{"type":"Polygon","coordinates":[[[-37.59,-10.701],[-37.586,-10.712],[-37.587,-10.721],[-37.57,-10.744],[-37.564,-10.751],[-37.56,-10.757],[-37.563,-10.761],[-37.566,-10.767],[-37.561,-10.775],[-37.558,-10.778],[-37.55,-10.783],[-37.543,-10.78],[-37.536,-10.784],[-37.535,-10.782],[-37.528,-10.784],[-37.53,-10.79],[-37.523,-10.794],[-37.52,-10.792],[-37.521,-10.8],[-37.516,-10.798],[-37.517,-10.804],[-37.524,-10.809],[-37.524,-10.809],[-37.52,-10.812],[-37.524,-10.819],[-37.512,-10.826],[-37.507,-10.824],[-37.498,-10.833],[-37.509,-10.835],[-37.511,-10.843],[-37.517,-10.844],[-37.541,-10.838],[-37.544,-10.835],[-37.552,-10.84],[-37.565,-10.836],[-37.573,-10.839],[-37.581,-10.836],[-37.597,-10.822],[-37.597,-10.821],[-37.6,-10.815],[-37.61,-10.812],[-37.614,-10.801],[-37.613,-10.795],[-37.6,-10.781],[-37.607,-10.767],[-37.62,-10.748],[-37.633,-10.747],[-37.628,-10.74],[-37.632,-10.732],[-37.63,-10.725],[-37.617,-10.714],[-37.618,-10.712],[-37.611,-10.712],[-37.609,-10.706],[-37.605,-10.709],[-37.608,-10.7],[-37.604,-10.693],[-37.595,-10.696],[-37.59,-10.701]]]}},{"type":"Feature","properties":{"id":"2806909","name":"São Francisco"},"geometry":{"type":"Polygon","coordinates":[[[-36.836,-10.29],[-36.819,-10.297],[-36.823,-10.303],[-36.817,-10.311],[-36.821,-10.311],[-36.827,-10.332],[-36.838,-10.342],[-36.84,-10.356],[-36.849,-10.373],[-36.855,-10.382],[-36.895,-10.386],[-36.903,-10.403],[-36.915,-10.393],[-36.914,-10.379],[-36.913,-10.374],[-36.9,-10.35],[-36.902,-10.324],[-36.886,-10.3],[-36.881,-10.296],[-36.875,-10.297],[-36.856,-10.278],[-36.844,-10.261],[-36.839,-10.27],[-36.842,-10.277],[-36.837,-10.281],[-36.836,-10.29]]]}},{"type":"Feature","properties":{"id":"2807006","name":"São Miguel do Aleixo"},"geometry":{"type":"Polygon","coordinates":[[[-37.394,-10.288],[-37.389,-10.294],[-37.387,-10.293],[-37.387,-10.305],[-37.385,-10.309],[-37.391,-10.317],[-37.388,-10.32],[-37.382,-10.315],[-37.378,-10.317],[-37.373,-10.33],[-37.371,-10.327],[-37.369,-10.33],[-37.363,-10.329],[-37.356,-10.334],[-37.36,-10.336],[-37.359,-10.344],[-37.35,-10.346],[-37.35,-10.355],[-37.345,-10.358],[-37.345,-10.362],[-37.351,-10.365],[-37.354,-10.363],[-37.356,-10.368],[-37.349,-10.371],[-37.35,-10.376],[-37.35,-10.376],[-37.349,-10.384],[-37.341,-10.384],[-37.348,-10.4],[-37.335,-10.4],[-37.333,-10.407],[-37.329,-10.413],[-37.332,-10.417],[-37.324,-10.421],[-37.332,-10.424],[-37.334,-10.427],[-37.331,-10.431],[-37.325,-10.433],[-37.318,-10.434],[-37.308,-10.425],[-37.302,-10.436],[-37.294,-10.433],[-37.292,-10.438],[-37.295,-10.441],[-37.294,-10.449],[-37.29,-10.448],[-37.287,-10.454],[-37.292,-10.458],[-37.29,-10.467],[-37.281,-10.462],[-37.275,-10.465],[-37.301,-10.475],[-37.302,-10.475],[-37.349,-10.491],[-37.359,-10.483],[-37.366,-10.467],[-37.369,-10.459],[-37.368,-10.452],[-37.372,-10.447],[-37.411,-10.416],[-37.411,-10.416],[-37.41,-10.367],[-37.413,-10.346],[-37.407,-10.318],[-37.406,-10.309],[-37.405,-10.306],[-37.403,-10.292],[-37.408,-10.245],[-37.398,-10.255],[-37.394,-10.26],[-37.39,-10.273],[-37.394,-10.288]]]}},{"type":"Feature","properties":{"id":"2807105","name":"Simão Dias"},"geometry":{"type":"Polygon","coordinates":[[[-37.815,-10.595],[-37.807,-10.6],[-37.8,-10.591],[-37.785,-10.601],[-37.771,-10.603],[-37.767,-10.605],[-37.767,-10.618],[-37.755,-10.623],[-37.75,-10.621],[-37.74,-10.632],[-37.731,-10.63],[-37.722,-10.633],[-37.724,-10.64],[-37.717,-10.645],[-37.706,-10.633],[-37.702,-10.641],[-37.696,-10.639],[-37.693,-10.639],[-37.698,-10.647],[-37.714,-10.666],[-37.71,-10.671],[-37.704,-10.669],[-37.703,-10.677],[-37.694,-10.683],[-37.686,-10.682],[-37.684,-10.684],[-37.686,-10.692],[-37.677,-10.696],[-37.674,-10.702],[-37.684,-10.708],[-37.678,-10.714],[-37.679,-10.727],[-37.698,-10.737],[-37.707,-10.738],[-37.71,-10.751],[-37.709,-10.754],[-37.72,-10.767],[-37.718,-10.769],[-37.724,-10.786],[-37.733,-10.797],[-37.74,-10.802],[-37.752,-10.807],[-37.766,-10.818],[-37.791,-10.831],[-37.799,-10.835],[-37.805,-10.841],[-37.813,-10.869],[-37.828,-10.859],[-37.848,-10.865],[-37.86,-10.869],[-37.877,-10.864],[-37.877,-10.864],[-37.897,-10.872],[-37.923,-10.879],[-37.932,-10.881],[-37.938,-10.882],[-37.939,-10.888],[-37.973,-10.88],[-37.972,-10.868],[-37.97,-10.825],[-37.97,-10.794],[-37.971,-10.769],[-37.971,-10.768],[-37.972,-10.754],[-37.939,-10.741],[-37.92,-10.733],[-37.909,-10.729],[-37.901,-10.725],[-37.898,-10.724],[-37.882,-10.718],[-37.867,-10.712],[-37.845,-10.703],[-37.844,-10.703],[-37.828,-10.697],[-37.814,-10.691],[-37.815,-10.685],[-37.821,-10.644],[-37.83,-10.584],[-37.818,-10.585],[-37.815,-10.595]]]}},{"type":"Feature","properties":{"id":"2807204","name":"Siriri"},"geometry":{"type":"Polygon","coordinates":[[[-37.104,-10.528],[-37.107,-10.531],[-37.081,-10.527],[-37.07,-10.529],[-37.068,-10.529],[-37.074,-10.561],[-37.07,-10.573],[-37.075,-10.577],[-37.077,-10.589],[-37.068,-10.591],[-37.066,-10.598],[-37.067,-10.608],[-37.073,-10.615],[-37.075,-10.631],[-37.076,-10.632],[-37.077,-10.632],[-37.084,-10.636],[-37.092,-10.641],[-37.094,-10.638],[-37.099,-10.644],[-37.115,-10.647],[-37.134,-10.651],[-37.142,-10.644],[-37.146,-10.636],[-37.143,-10.625],[-37.159,-10.627],[-37.15,-10.62],[-37.178,-10.625],[-37.207,-10.607],[-37.194,-10.592],[-37.175,-10.579],[-37.172,-10.571],[-37.177,-10.565],[-37.178,-10.565],[-37.18,-10.562],[-37.16,-10.534],[-37.16,-10.534],[-37.156,-10.529],[-37.139,-10.507],[-37.138,-10.47],[-37.123,-10.476],[-37.115,-10.482],[-37.113,-10.492],[-37.103,-10.51],[-37.104,-10.528]]]}},{"type":"Feature","properties":{"id":"2807303","name":"Telha"},"geometry":{"type":"Polygon","coordinates":[[[-36.848,-10.162],[-36.847,-10.176],[-36.847,-10.18],[-36.846,-10.186],[-36.848,-10.188],[-36.85,-10.186],[-36.856,-10.176],[-36.86,-10.185],[-36.867,-10.205],[-36.867,-10.228],[-36.888,-10.226],[-36.899,-10.226],[-36.929,-10.222],[-36.943,-10.227],[-36.903,-10.173],[-36.88,-10.145],[-36.867,-10.157],[-36.848,-10.162]]]}},{"type":"Feature","properties":{"id":"2807402","name":"Tobias Barreto"},"geometry":{"type":"Polygon","coordinates":[[[-38.026,-10.815],[-37.97,-10.825],[-37.972,-10.868],[-37.973,-10.88],[-37.958,-10.927],[-37.957,-10.934],[-37.944,-10.946],[-37.933,-10.973],[-37.941,-10.985],[-37.945,-10.981],[-37.949,-10.986],[-37.946,-10.997],[-37.939,-11.004],[-37.932,-11.006],[-37.93,-11.011],[-37.915,-11.025],[-37.905,-11.034],[-37.895,-11.045],[-37.867,-11.08],[-37.843,-11.109],[-37.793,-11.133],[-37.828,-11.151],[-37.846,-11.161],[-37.861,-11.173],[-37.862,-11.174],[-37.876,-11.186],[-37.876,-11.19],[-37.869,-11.201],[-37.871,-11.207],[-37.866,-11.21],[-37.868,-11.222],[-37.878,-11.217],[-37.883,-11.211],[-37.886,-11.213],[-37.904,-11.221],[-37.915,-11.235],[-37.927,-11.252],[-37.959,-11.308],[-37.982,-11.348],[-37.99,-11.341],[-37.993,-11.343],[-38.0,-11.339],[-37.998,-11.335],[-37.988,-11.331],[-37.998,-11.322],[-37.991,-11.32],[-37.992,-11.312],[-37.995,-11.312],[-38.001,-11.303],[-38.003,-11.292],[-38.01,-11.294],[-38.015,-11.285],[-38.004,-11.286],[-37.993,-11.279],[-37.993,-11.273],[-37.987,-11.271],[-37.986,-11.267],[-37.991,-11.266],[-37.996,-11.259],[-37.987,-11.253],[-37.984,-11.247],[-37.987,-11.245],[-37.99,-11.248],[-37.993,-11.24],[-37.986,-11.237],[-37.991,-11.228],[-37.977,-11.221],[-37.977,-11.214],[-37.982,-11.21],[-37.979,-11.205],[-37.981,-11.198],[-37.974,-11.195],[-37.98,-11.191],[-37.985,-11.195],[-37.987,-11.196],[-37.996,-11.191],[-38.0,-11.195],[-38.014,-11.184],[-38.023,-11.178],[-38.046,-11.178],[-38.061,-11.172],[-38.062,-11.164],[-38.066,-11.16],[-38.066,-11.149],[-38.07,-11.142],[-38.065,-11.131],[-38.065,-11.123],[-38.069,-11.119],[-38.083,-11.119],[-38.089,-11.115],[-38.089,-11.106],[-38.094,-11.101],[-38.092,-11.098],[-38.086,-11.097],[-38.075,-11.076],[-38.081,-11.064],[-38.084,-11.065],[-38.085,-11.06],[-38.091,-11.058],[-38.091,-11.051],[-38.096,-11.049],[-38.1,-11.041],[-38.098,-11.038],[-38.106,-11.025],[-38.101,-11.02],[-38.101,-11.015],[-38.121,-11.007],[-38.125,-11.01],[-38.123,-11.018],[-38.129,-11.018],[-38.14,-11.009],[-38.144,-11.002],[-38.149,-11.001],[-38.18,-10.974],[-38.18,-10.969],[-38.187,-10.962],[-38.18,-10.95],[-38.181,-10.944],[-38.167,-10.94],[-38.17,-10.926],[-38.164,-10.921],[-38.162,-10.911],[-38.157,-10.9],[-38.139,-10.9],[-38.135,-10.894],[-38.129,-10.891],[-38.119,-10.869],[-38.127,-10.857],[-38.125,-10.848],[-38.118,-10.843],[-38.114,-10.834],[-38.108,-10.836],[-38.102,-10.83],[-38.097,-10.83],[-38.086,-10.825],[-38.086,-10.822],[-38.078,-10.822],[-38.074,-10.818],[-38.045,-10.818],[-38.026,-10.815]]]}},{"type":"Feature","properties":{"id":"2807501","name":"Tomar do Geru"},"geometry":{"type":"Polygon","coordinates":[[[-37.927,-11.252],[-37.918,-11.265],[-37.907,-11.264],[-37.901,-11.272],[-37.878,-11.289],[-37.874,-11.285],[-37.871,-11.284],[-37.863,-11.3],[-37.855,-11.3],[-37.852,-11.297],[-37.848,-11.301],[-37.846,-11.305],[-37.838,-11.313],[-37.836,-11.314],[-37.829,-11.321],[-37.822,-11.319],[-37.815,-11.324],[-37.815,-11.324],[-37.815,-11.331],[-37.791,-11.348],[-37.791,-11.36],[-37.787,-11.359],[-37.786,-11.365],[-37.785,-11.373],[-37.778,-11.378],[-37.771,-11.377],[-37.769,-11.39],[-37.761,-11.394],[-37.764,-11.404],[-37.759,-11.407],[-37.751,-11.405],[-37.751,-11.4],[-37.747,-11.412],[-37.807,-11.412],[-37.811,-11.422],[-37.833,-11.483],[-37.84,-11.481],[-37.848,-11.469],[-37.863,-11.467],[-37.863,-11.455],[-37.863,-11.452],[-37.853,-11.452],[-37.852,-11.446],[-37.848,-11.444],[-37.85,-11.44],[-37.867,-11.442],[-37.87,-11.435],[-37.881,-11.433],[-37.874,-11.428],[-37.866,-11.428],[-37.868,-11.426],[-37.883,-11.424],[-37.892,-11.436],[-37.893,-11.433],[-37.9,-11.437],[-37.902,-11.428],[-37.907,-11.426],[-37.904,-11.423],[-37.906,-11.42],[-37.905,-11.41],[-37.907,-11.408],[-37.914,-11.408],[-37.917,-11.403],[-37.929,-11.401],[-37.928,-11.409],[-37.935,-11.413],[-37.936,-11.422],[-37.942,-11.423],[-37.945,-11.423],[-37.942,-11.418],[-37.946,-11.413],[-37.956,-11.407],[-37.951,-11.404],[-37.952,-11.395],[-37.958,-11.396],[-37.961,-11.401],[-37.965,-11.402],[-37.965,-11.393],[-37.968,-11.39],[-37.978,-11.393],[-37.981,-11.385],[-37.968,-11.381],[-37.969,-11.373],[-37.973,-11.373],[-37.978,-11.365],[-37.982,-11.348],[-37.959,-11.308],[-37.927,-11.252]]]}},{"type":"Feature","properties":{"id":"2807600","name":"Umbaúba"},"geometry":{"type":"Polygon","coordinates":[[[-37.602,-11.388],[-37.611,-11.404],[-37.634,-11.449],[-37.641,-11.461],[-37.652,-11.482],[-37.653,-11.479],[-37.66,-11.485],[-37.677,-11.473],[-37.672,-11.457],[-37.677,-11.446],[-37.682,-11.444],[-37.686,-11.434],[-37.691,-11.432],[-37.693,-11.425],[-37.702,-11.421],[-37.704,-11.417],[-37.704,-11.416],[-37.72,-11.407],[-37.723,-11.399],[-37.73,-11.401],[-37.702,-11.375],[-37.692,-11.365],[-37.692,-11.33],[-37.692,-11.316],[-37.692,-11.308],[-37.683,-11.316],[-37.675,-11.323],[-37.674,-11.324],[-37.639,-11.355],[-37.639,-11.356],[-37.625,-11.367],[-37.625,-11.368],[-37.624,-11.369],[-37.602,-11.388]]]}}],"fonte":"Malha municipal do IBGE, obtida do espelho tbrugz/geodata-br no GitHub (geojs-28-mun.json). Coordenadas arredondadas para 3 decimais. Para gerar a partir da fonte oficial, use preparar-geometria.R."}